{"type": "FeatureCollection", "features": [{"type": "Feature", "geometry": {"type": "LineString", "coordinates": [[49.8540339, 40.3753742], [49.8540464, 40.3753526], [49.8541224, 40.375224], [49.8546391, 40.3744093]]}, "properties": {"edge_id": "276371597-276842653-0", "u": 276371597, "v": 276842653, "key": 0, "name": "Pu\u015fkin k\u00fc\u00e7\u0259si", "highway": "secondary", "length_m": 118.91757319537888, "speed_kph": 53.888888888888886, "travel_time_s": 7.944184271196446, "congestion": 0.866446734681625, "u_lon": 49.8540339, "u_lat": 40.3753742, "v_lon": 49.8546391, "v_lat": 40.3744093}}, {"type": "Feature", "geometry": {"type": "LineString", "coordinates": [[49.8540339, 40.3753742], [49.8539725, 40.3754718], [49.8539269, 40.3755461], [49.8538434, 40.3756973], [49.8536281, 40.376089], [49.8535811, 40.3761687]]}, "properties": {"edge_id": "276371597-276846861-0", "u": 276371597, "v": 276846861, "key": 0, "name": "Pu\u015fkin k\u00fc\u00e7\u0259si", "highway": "secondary", "length_m": 96.32974112548541, "speed_kph": 50.0, "travel_time_s": 6.93574136103495, "congestion": 0.7564590963295921, "u_lon": 49.8540339, "u_lat": 40.3753742, "v_lon": 49.8535811, "v_lat": 40.3761687}}, {"type": "Feature", "geometry": {"type": "LineString", "coordinates": [[49.8540339, 40.3753742], [49.8531308, 40.3750838], [49.8523467, 40.3748301], [49.8519594, 40.3747073], [49.8511836, 40.3744628], [49.851087, 40.3744324]]}, "properties": {"edge_id": "276371597-3828317618-0", "u": 276371597, "v": 3828317618, "key": 0, "name": "\u00dczeyir Hac\u0131b\u0259yli k\u00fc\u00e7\u0259si", "highway": "trunk", "length_m": 270.7129583134176, "speed_kph": 60.0, "travel_time_s": 16.242777498805054, "congestion": 1.0, "u_lon": 49.8540339, "u_lat": 40.3753742, "v_lon": 49.851087, "v_lat": 40.3744324}}, {"type": "Feature", "geometry": {"type": "LineString", "coordinates": [[49.8432723, 40.3750336], [49.8435118, 40.374477]]}, "properties": {"edge_id": "276371997-277359772-0", "u": 276371997, "v": 277359772, "key": 0, "name": "B\u00fclb\u00fcl prospekti", "highway": "primary", "length_m": 65.13166424664244, "speed_kph": 60.0, "travel_time_s": 3.907899854798547, "congestion": 0.42622212087019556, "u_lon": 49.8432723, "u_lat": 40.3750336, "v_lon": 49.8435118, "v_lat": 40.374477}}, {"type": "Feature", "geometry": {"type": "LineString", "coordinates": [[49.8432723, 40.3750336], [49.8415973, 40.3746038], [49.8415141, 40.3745834]]}, "properties": {"edge_id": "276371997-276371756-0", "u": 276371997, "v": 276371756, "key": 0, "name": "H\u0259zi Aslanov k\u00fc\u00e7.", "highway": "residential", "length_m": 157.12732321956304, "speed_kph": 55.88235294117647, "travel_time_s": 10.122307558986588, "congestion": 1.0, "u_lon": 49.8432723, "u_lat": 40.3750336, "v_lon": 49.8415141, "v_lat": 40.3745834}}, {"type": "Feature", "geometry": {"type": "LineString", "coordinates": [[49.8426017, 40.3770248], [49.8426082, 40.3770032], [49.8427733, 40.3764118]]}, "properties": {"edge_id": "276372001-11882565048-0", "u": 276372001, "v": 11882565048, "key": 0, "name": "B\u00fclb\u00fcl prospekti", "highway": "primary", "length_m": 69.6955857676715, "speed_kph": 60.0, "travel_time_s": 4.18173514606029, "congestion": 0.45608845904346595, "u_lon": 49.8426017, "u_lat": 40.3770248, "v_lon": 49.8427733, "v_lat": 40.3764118}}, {"type": "Feature", "geometry": {"type": "LineString", "coordinates": [[49.8426017, 40.3770248], [49.8427303, 40.3770521], [49.8439559, 40.3772823], [49.8439988, 40.3772905]]}, "properties": {"edge_id": "276372001-277363717-0", "u": 276372001, "v": 277363717, "key": 0, "name": "Mirz\u0259a\u011fa \u018fliyev k\u00fc\u00e7\u0259si", "highway": "residential", "length_m": 121.98232132857669, "speed_kph": 55.88235294117647, "travel_time_s": 7.858229542430413, "congestion": 0.8570719277124814, "u_lon": 49.8426017, "u_lat": 40.3770248, "v_lon": 49.8439988, "v_lat": 40.3772905}}, {"type": "Feature", "geometry": {"type": "LineString", "coordinates": [[49.8422162, 40.3784403], [49.8423368, 40.3780863], [49.8424971, 40.3776031], [49.8425064, 40.3775642], [49.8425071, 40.3775382], [49.8425064, 40.3775193], [49.8424992, 40.3774721]]}, "properties": {"edge_id": "276372003-9815498885-0", "u": 276372003, "v": 9815498885, "key": 0, "name": "B\u00fclb\u00fcl prospekti", "highway": "primary", "length_m": 110.7602286519466, "speed_kph": 60.0, "travel_time_s": 6.645613719116796, "congestion": 0.7248158036516638, "u_lon": 49.8422162, "u_lat": 40.3784403, "v_lon": 49.8424992, "v_lat": 40.3774721}}, {"type": "Feature", "geometry": {"type": "LineString", "coordinates": [[49.8418856, 40.3793339], [49.8419629, 40.379111], [49.8422162, 40.3784403]]}, "properties": {"edge_id": "276372004-276372003-0", "u": 276372004, "v": 276372003, "key": 0, "name": "B\u00fclb\u00fcl prospekti", "highway": "secondary", "length_m": 103.23928934880345, "speed_kph": 53.888888888888886, "travel_time_s": 6.896810257528314, "congestion": 0.7522130055593692, "u_lon": 49.8418856, "u_lat": 40.3793339, "v_lon": 49.8422162, "v_lat": 40.3784403}}, {"type": "Feature", "geometry": {"type": "LineString", "coordinates": [[49.8418856, 40.3793339], [49.8433509, 40.3797022], [49.843937, 40.3798455], [49.8440574, 40.3798743]]}, "properties": {"edge_id": "276372004-366835338-0", "u": 276372004, "v": 366835338, "key": 0, "name": "S\u00fcleyman R\u0259himov k\u00fc\u00e7\u0259si", "highway": "secondary", "length_m": 193.52947009579773, "speed_kph": 53.888888888888886, "travel_time_s": 12.92856666206979, "congestion": 1.0, "u_lon": 49.8418856, "u_lat": 40.3793339, "v_lon": 49.8440574, "v_lat": 40.3798743}}, {"type": "Feature", "geometry": {"type": "LineString", "coordinates": [[49.841569, 40.3802795], [49.8418496, 40.3794362], [49.8418856, 40.3793339]]}, "properties": {"edge_id": "276372005-276372004-0", "u": 276372005, "v": 276372004, "key": 0, "name": "B\u00fclb\u00fcl prospekti", "highway": "secondary", "length_m": 108.51307842901136, "speed_kph": 53.888888888888886, "travel_time_s": 7.249121115670038, "congestion": 0.7906384224692672, "u_lon": 49.841569, "u_lat": 40.3802795, "v_lon": 49.8418856, "v_lat": 40.3793339}}, {"type": "Feature", "geometry": {"type": "LineString", "coordinates": [[49.841569, 40.3802795], [49.8421305, 40.3804086], [49.8424878, 40.3804884], [49.8430153, 40.3806234], [49.8435733, 40.3807629], [49.8436741, 40.3807893]]}, "properties": {"edge_id": "276372005-670215261-0", "u": 276372005, "v": 670215261, "key": 0, "name": "\u015eamil \u018fzizb\u0259yov k\u00fc\u00e7\u0259si", "highway": "residential", "length_m": 187.12825465632656, "speed_kph": 55.88235294117647, "travel_time_s": 12.054999142070722, "congestion": 1.0, "u_lon": 49.841569, "u_lat": 40.3802795, "v_lon": 49.8436741, "v_lat": 40.3807893}}, {"type": "Feature", "geometry": {"type": "LineString", "coordinates": [[49.8497366, 40.3750116], [49.849819, 40.3750372], [49.8501887, 40.3751491], [49.851492, 40.3755552], [49.8515529, 40.3755748], [49.8515706, 40.3755792], [49.8516237, 40.375597]]}, "properties": {"edge_id": "276374004-276846862-0", "u": 276374004, "v": 276846862, "key": 0, "name": "Xaqani k\u00fc\u00e7\u0259si", "highway": "residential", "length_m": 172.60966034778625, "speed_kph": 60.0, "travel_time_s": 10.356579620867175, "congestion": 1.0, "u_lon": 49.8497366, "u_lat": 40.3750116, "v_lon": 49.8516237, "v_lat": 40.375597}}, {"type": "Feature", "geometry": {"type": "LineString", "coordinates": [[49.849308, 40.3757251], [49.8493524, 40.3756525], [49.8496786, 40.3751044], [49.8497366, 40.3750116]]}, "properties": {"edge_id": "276374005-276374004-0", "u": 276374005, "v": 276374004, "key": 0, "name": "Azadl\u0131q prospekti", "highway": "primary", "length_m": 87.25247073404779, "speed_kph": 60.0, "travel_time_s": 5.235148244042867, "congestion": 0.5709808517498094, "u_lon": 49.849308, "u_lat": 40.3757251, "v_lon": 49.8497366, "v_lat": 40.3750116}}, {"type": "Feature", "geometry": {"type": "LineString", "coordinates": [[49.849308, 40.3757251], [49.8494151, 40.3757601], [49.8497474, 40.3758586], [49.849774, 40.3758665], [49.849875, 40.3758967], [49.8506809, 40.3761373], [49.8511296, 40.37627], [49.851223, 40.3762976]]}, "properties": {"edge_id": "276374005-276847904-0", "u": 276374005, "v": 276847904, "key": 0, "name": "Nizami k\u00fc\u00e7\u0259si", "highway": "residential", "length_m": 174.2677025969726, "speed_kph": 60.0, "travel_time_s": 10.456062155818357, "congestion": 1.0, "u_lon": 49.849308, "u_lat": 40.3757251, "v_lon": 49.851223, "v_lat": 40.3762976}}, {"type": "Feature", "geometry": {"type": "LineString", "coordinates": [[49.8486325, 40.3769209], [49.8486761, 40.3768383], [49.8492508, 40.3758202], [49.849308, 40.3757251]]}, "properties": {"edge_id": "276374006-276374005-0", "u": 276374006, "v": 276374005, "key": 0, "name": "Azadl\u0131q prospekti", "highway": "primary", "length_m": 144.7626668392722, "speed_kph": 60.0, "travel_time_s": 8.685760010356333, "congestion": 0.9473280254195383, "u_lon": 49.8486325, "u_lat": 40.3769209, "v_lon": 49.849308, "v_lat": 40.3757251}}, {"type": "Feature", "geometry": {"type": "LineString", "coordinates": [[49.8486325, 40.3769209], [49.8485255, 40.3768909], [49.8471817, 40.376425], [49.84694, 40.3763431]]}, "properties": {"edge_id": "276374006-1490151974-0", "u": 276374006, "v": 1490151974, "key": 0, "name": "28 May k\u00fc\u00e7\u0259si", "highway": "secondary", "length_m": 157.13214938414143, "speed_kph": 53.888888888888886, "travel_time_s": 10.497075546486975, "congestion": 1.0, "u_lon": 49.8486325, "u_lat": 40.3769209, "v_lon": 49.84694, "v_lat": 40.3763431}}, {"type": "Feature", "geometry": {"type": "LineString", "coordinates": [[49.8481699, 40.3777842], [49.8482622, 40.3778124], [49.8483428, 40.3778361], [49.8494263, 40.3781707], [49.8497325, 40.3782731], [49.8498242, 40.3783099], [49.8499174, 40.3783596], [49.8499986, 40.3784084]]}, "properties": {"edge_id": "276374007-276847902-0", "u": 276374007, "v": 276847902, "key": 0, "name": "Dilar\u0259 \u018fliyeva k\u00fc\u00e7\u0259si", "highway": "secondary", "length_m": 170.28041336410521, "speed_kph": 55.0, "travel_time_s": 11.145627056559615, "congestion": 1.0, "u_lon": 49.8481699, "u_lat": 40.3777842, "v_lon": 49.8499986, "v_lat": 40.3784084}}, {"type": "Feature", "geometry": {"type": "LineString", "coordinates": [[49.8481699, 40.3777842], [49.8480973, 40.377763], [49.8463764, 40.3772425]]}, "properties": {"edge_id": "276374007-1490151975-0", "u": 276374007, "v": 1490151975, "key": 0, "name": "Dilar\u0259 \u018fliyeva k\u00fc\u00e7\u0259si", "highway": "secondary", "length_m": 163.42871553973262, "speed_kph": 60.0, "travel_time_s": 9.805722932383958, "congestion": 1.0, "u_lon": 49.8481699, "u_lat": 40.3777842, "v_lon": 49.8463764, "v_lat": 40.3772425}}, {"type": "Feature", "geometry": {"type": "LineString", "coordinates": [[49.8481699, 40.3777842], [49.8482013, 40.3777217], [49.848532, 40.3770852], [49.8486325, 40.3769209]]}, "properties": {"edge_id": "276374007-276374006-0", "u": 276374007, "v": 276374006, "key": 0, "name": "Azadl\u0131q prospekti", "highway": "primary", "length_m": 103.71454401859285, "speed_kph": 60.0, "travel_time_s": 6.22287264111557, "congestion": 0.6787087882368781, "u_lon": 49.8481699, "u_lat": 40.3777842, "v_lon": 49.8486325, "v_lat": 40.3769209}}, {"type": "Feature", "geometry": {"type": "LineString", "coordinates": [[49.8472268, 40.3797589], [49.8467662, 40.3796386], [49.8460553, 40.3794515], [49.8459049, 40.3794119], [49.8458525, 40.3793981]]}, "properties": {"edge_id": "276374008-1490151990-0", "u": 276374008, "v": 1490151990, "key": 0, "name": "F\u00fczuli k\u00fc\u00e7\u0259si", "highway": "primary", "length_m": 123.12950250047997, "speed_kph": 60.0, "travel_time_s": 7.387770150028799, "congestion": 0.8057604285791301, "u_lon": 49.8472268, "u_lat": 40.3797589, "v_lon": 49.8458525, "v_lat": 40.3793981}}, {"type": "Feature", "geometry": {"type": "LineString", "coordinates": [[49.8472268, 40.3797589], [49.847328, 40.3795468], [49.847553, 40.3790701], [49.8475711, 40.3790303], [49.8476684, 40.3788108], [49.8477287, 40.3786776]]}, "properties": {"edge_id": "276374008-277363537-0", "u": 276374008, "v": 277363537, "key": 0, "name": "Azadl\u0131q prospekti", "highway": "primary", "length_m": 127.53501529432866, "speed_kph": 60.0, "travel_time_s": 7.652100917659719, "congestion": 0.8345901388012477, "u_lon": 49.8472268, "u_lat": 40.3797589, "v_lon": 49.8477287, "v_lat": 40.3786776}}, {"type": "Feature", "geometry": {"type": "LineString", "coordinates": [[49.8468575, 40.3805991], [49.8469724, 40.3806297], [49.8483436, 40.3809793], [49.84847, 40.3810059]]}, "properties": {"edge_id": "276374009-2781838366-0", "u": 276374009, "v": 2781838366, "key": 0, "name": "S\u00fcleyman R\u0259himov k\u00fc\u00e7\u0259si", "highway": "secondary", "length_m": 143.89588483466937, "speed_kph": 53.888888888888886, "travel_time_s": 9.612838492048017, "congestion": 1.0, "u_lon": 49.8468575, "u_lat": 40.3805991, "v_lon": 49.84847, "v_lat": 40.3810059}}, {"type": "Feature", "geometry": {"type": "LineString", "coordinates": [[49.8468575, 40.3805991], [49.8468763, 40.380545], [49.8471896, 40.3798377], [49.8472268, 40.3797589]]}, "properties": {"edge_id": "276374009-276374008-0", "u": 276374009, "v": 276374008, "key": 0, "name": "Azadl\u0131q prospekti", "highway": "primary", "length_m": 98.5392575269043, "speed_kph": 60.0, "travel_time_s": 5.912355451614258, "congestion": 0.6448416729080682, "u_lon": 49.8468575, "u_lat": 40.3805991, "v_lon": 49.8472268, "v_lat": 40.3797589}}, {"type": "Feature", "geometry": {"type": "LineString", "coordinates": [[49.8464598, 40.3814517], [49.8464893, 40.3814589], [49.8472962, 40.3816559], [49.8480533, 40.3818408]]}, "properties": {"edge_id": "276374010-1104367652-0", "u": 276374010, "v": 1104367652, "key": 0, "name": "\u015eamil \u018fzizb\u0259yov k\u00fc\u00e7\u0259si", "highway": "residential", "length_m": 141.73824831172956, "speed_kph": 55.88235294117647, "travel_time_s": 9.130927154397737, "congestion": 0.9958809800307142, "u_lon": 49.8464598, "u_lat": 40.3814517, "v_lon": 49.8480533, "v_lat": 40.3818408}}, {"type": "Feature", "geometry": {"type": "LineString", "coordinates": [[49.8464598, 40.3814517], [49.8464775, 40.3814133], [49.846786, 40.3807424], [49.8468203, 40.3806842], [49.8468575, 40.3805991]]}, "properties": {"edge_id": "276374010-276374009-0", "u": 276374010, "v": 276374009, "key": 0, "name": "Azadl\u0131q prospekti", "highway": "primary", "length_m": 100.63771053234886, "speed_kph": 60.0, "travel_time_s": 6.038262631940932, "congestion": 0.658573965808493, "u_lon": 49.8464598, "u_lat": 40.3814517, "v_lon": 49.8468575, "v_lat": 40.3805991}}, {"type": "Feature", "geometry": {"type": "LineString", "coordinates": [[49.8460407, 40.3823259], [49.8460614, 40.3822827], [49.8464412, 40.3814906], [49.8464598, 40.3814517]]}, "properties": {"edge_id": "276374011-276374010-0", "u": 276374011, "v": 276374010, "key": 0, "name": "Azadl\u0131q prospekti", "highway": "primary", "length_m": 103.48577213784394, "speed_kph": 60.0, "travel_time_s": 6.209146328270636, "congestion": 0.6772117032577654, "u_lon": 49.8460407, "u_lat": 40.3823259, "v_lon": 49.8464598, "v_lat": 40.3814517}}, {"type": "Feature", "geometry": {"type": "LineString", "coordinates": [[49.8460407, 40.3823259], [49.8459921, 40.3823142], [49.8446832, 40.3819988]]}, "properties": {"edge_id": "276374011-1490151992-0", "u": 276374011, "v": 1490151992, "key": 0, "name": "Salat\u0131n \u018fsg\u0259rova k\u00fc\u00e7\u0259si", "highway": "secondary", "length_m": 120.5981744240809, "speed_kph": 53.888888888888886, "travel_time_s": 8.056455363588086, "congestion": 0.8786917831448859, "u_lon": 49.8460407, "u_lat": 40.3823259, "v_lon": 49.8446832, "v_lat": 40.3819988}}, {"type": "Feature", "geometry": {"type": "LineString", "coordinates": [[49.8453957, 40.3837266], [49.8453451, 40.3837153], [49.8447655, 40.3835858], [49.844073, 40.3834289]]}, "properties": {"edge_id": "276374013-1311738984-0", "u": 276374013, "v": 1311738984, "key": 0, "name": "Sahib Zeynalov k\u00fc\u00e7.", "highway": "residential", "length_m": 116.82104756402602, "speed_kph": 55.88235294117647, "travel_time_s": 7.5257348535983075, "congestion": 0.8208077969215962, "u_lon": 49.8453957, "u_lat": 40.3837266, "v_lon": 49.844073, "v_lat": 40.3834289}}, {"type": "Feature", "geometry": {"type": "LineString", "coordinates": [[49.8453957, 40.3837266], [49.8456989, 40.3830727], [49.8457509, 40.3829705]]}, "properties": {"edge_id": "276374013-4767987221-0", "u": 276374013, "v": 4767987221, "key": 0, "name": "Azadl\u0131q prospekti", "highway": "primary", "length_m": 89.3002622151336, "speed_kph": 60.0, "travel_time_s": 5.358015732908016, "congestion": 0.5843816152381047, "u_lon": 49.8453957, "u_lat": 40.3837266, "v_lon": 49.8457509, "v_lat": 40.3829705}}, {"type": "Feature", "geometry": {"type": "LineString", "coordinates": [[49.8453957, 40.3837266], [49.8454294, 40.3837343], [49.8462031, 40.3839114], [49.8470104, 40.3840961]]}, "properties": {"edge_id": "276374013-1311738985-0", "u": 276374013, "v": 1311738985, "key": 0, "name": "Sahib Zeynalov k\u00fc\u00e7.", "highway": "residential", "length_m": 142.80265477714428, "speed_kph": 55.88235294117647, "travel_time_s": 9.19949733932761, "congestion": 1.0, "u_lon": 49.8453957, "u_lat": 40.3837266, "v_lon": 49.8470104, "v_lat": 40.3840961}}, {"type": "Feature", "geometry": {"type": "LineString", "coordinates": [[49.8450178, 40.3844736], [49.8453957, 40.3837266]]}, "properties": {"edge_id": "276374015-276374013-0", "u": 276374015, "v": 276374013, "key": 0, "name": "Azadl\u0131q prospekti", "highway": "primary", "length_m": 89.01640547838738, "speed_kph": 60.0, "travel_time_s": 5.340984328703243, "congestion": 0.582524054529981, "u_lon": 49.8450178, "u_lat": 40.3844736, "v_lon": 49.8453957, "v_lat": 40.3837266}}, {"type": "Feature", "geometry": {"type": "LineString", "coordinates": [[49.8450178, 40.3844736], [49.844998, 40.3844691], [49.8437619, 40.3841845]]}, "properties": {"edge_id": "276374015-1311738981-0", "u": 276374015, "v": 1311738981, "key": 0, "name": "Abbas Zamanov k\u00fc\u00e7\u0259si", "highway": "residential", "length_m": 111.12480459885163, "speed_kph": 55.88235294117647, "travel_time_s": 7.158776885736547, "congestion": 0.780784866666563, "u_lon": 49.8450178, "u_lat": 40.3844736, "v_lon": 49.8437619, "v_lat": 40.3841845}}, {"type": "Feature", "geometry": {"type": "LineString", "coordinates": [[49.8546391, 40.3744093], [49.8541224, 40.375224], [49.8540464, 40.3753526], [49.8540339, 40.3753742]]}, "properties": {"edge_id": "276842653-276371597-0", "u": 276842653, "v": 276371597, "key": 0, "name": "Pu\u015fkin k\u00fc\u00e7\u0259si", "highway": "secondary", "length_m": 118.91757319537886, "speed_kph": 53.888888888888886, "travel_time_s": 7.944184271196445, "congestion": 0.8664467346816249, "u_lon": 49.8546391, "u_lat": 40.3744093, "v_lon": 49.8540339, "v_lat": 40.3753742}}, {"type": "Feature", "geometry": {"type": "LineString", "coordinates": [[49.8531696, 40.3768745], [49.8532085, 40.3768104], [49.8535266, 40.3762696], [49.8535811, 40.3761687]]}, "properties": {"edge_id": "276842654-276846861-0", "u": 276842654, "v": 276846861, "key": 0, "name": "Pu\u015fkin k\u00fc\u00e7\u0259si", "highway": "secondary", "length_m": 85.88021430299328, "speed_kph": 50.0, "travel_time_s": 6.183375429815516, "congestion": 0.6744009539027674, "u_lon": 49.8531696, "u_lat": 40.3768745, "v_lon": 49.8535811, "v_lat": 40.3761687}}, {"type": "Feature", "geometry": {"type": "LineString", "coordinates": [[49.8531696, 40.3768745], [49.8531068, 40.3769851], [49.8525467, 40.3779329], [49.8525299, 40.3779624], [49.852496, 40.3780277]]}, "properties": {"edge_id": "276842654-276842655-0", "u": 276842654, "v": 276842655, "key": 0, "name": "Pu\u015fkin k\u00fc\u00e7\u0259si", "highway": "secondary", "length_m": 140.36099218670822, "speed_kph": 50.0, "travel_time_s": 10.105991437442993, "congestion": 1.0, "u_lon": 49.8531696, "u_lat": 40.3768745, "v_lon": 49.852496, "v_lat": 40.3780277}}, {"type": "Feature", "geometry": {"type": "LineString", "coordinates": [[49.852496, 40.3780277], [49.8524164, 40.378183], [49.8520042, 40.3789619], [49.851982, 40.3789966], [49.8519626, 40.3790213], [49.8519411, 40.3790431], [49.8519121, 40.3790706]]}, "properties": {"edge_id": "276842655-3828673172-0", "u": 276842655, "v": 3828673172, "key": 0, "name": "Pu\u015fkin k\u00fc\u00e7\u0259si", "highway": "secondary", "length_m": 126.36848812398831, "speed_kph": 50.0, "travel_time_s": 9.09853114492716, "congestion": 0.9923476510362863, "u_lon": 49.852496, "u_lat": 40.3780277, "v_lon": 49.8519121, "v_lat": 40.3790706}}, {"type": "Feature", "geometry": {"type": "LineString", "coordinates": [[49.852496, 40.3780277], [49.8525299, 40.3779624], [49.8525467, 40.3779329], [49.8531068, 40.3769851], [49.8531696, 40.3768745]]}, "properties": {"edge_id": "276842655-276842654-0", "u": 276842655, "v": 276842654, "key": 0, "name": "Pu\u015fkin k\u00fc\u00e7\u0259si", "highway": "secondary", "length_m": 140.36099218670822, "speed_kph": 50.0, "travel_time_s": 10.105991437442993, "congestion": 1.0, "u_lon": 49.852496, "u_lat": 40.3780277, "v_lon": 49.8531696, "v_lat": 40.3768745}}, {"type": "Feature", "geometry": {"type": "LineString", "coordinates": [[49.852496, 40.3780277], [49.8523705, 40.3779916], [49.8506415, 40.3774911], [49.850547, 40.3774638]]}, "properties": {"edge_id": "276842655-276847903-0", "u": 276842655, "v": 276847903, "key": 0, "name": "28 May k\u00fc\u00e7\u0259si", "highway": "secondary", "length_m": 176.60086944052821, "speed_kph": 53.888888888888886, "travel_time_s": 11.79766632963529, "congestion": 1.0, "u_lon": 49.852496, "u_lat": 40.3780277, "v_lon": 49.850547, "v_lat": 40.3774638}}, {"type": "Feature", "geometry": {"type": "LineString", "coordinates": [[49.8551556, 40.3787488], [49.854824, 40.378648]]}, "properties": {"edge_id": "276843332-3858806802-0", "u": 276843332, "v": 3858806802, "key": 0, "name": "28 May k\u00fc\u00e7\u0259si", "highway": "secondary", "length_m": 30.242287879204863, "speed_kph": 60.0, "travel_time_s": 1.8145372727522917, "congestion": 0.19790576870613563, "u_lon": 49.8551556, "u_lat": 40.3787488, "v_lon": 49.854824, "v_lat": 40.378648}}, {"type": "Feature", "geometry": {"type": "LineString", "coordinates": [[49.8551556, 40.3787488], [49.855151, 40.3787642], [49.8551135, 40.3787851], [49.8550451, 40.3788106], [49.8549701, 40.3788653], [49.8549349, 40.3788997]]}, "properties": {"edge_id": "276843332-2022808763-0", "u": 276843332, "v": 2022808763, "key": 0, "name": "Rixard Zorge k\u00fc\u00e7\u0259si", "highway": "residential", "length_m": 25.787622305365137, "speed_kph": 50.0, "travel_time_s": 1.85670880598629, "congestion": 0.2025052827682147, "u_lon": 49.8551556, "u_lat": 40.3787488, "v_lon": 49.8549349, "v_lat": 40.3788997}}, {"type": "Feature", "geometry": {"type": "LineString", "coordinates": [[49.8535811, 40.3761687], [49.8536281, 40.376089], [49.8538434, 40.3756973], [49.8539269, 40.3755461], [49.8539725, 40.3754718], [49.8540339, 40.3753742]]}, "properties": {"edge_id": "276846861-276371597-0", "u": 276846861, "v": 276371597, "key": 0, "name": "Pu\u015fkin k\u00fc\u00e7\u0259si", "highway": "secondary", "length_m": 96.3297411254854, "speed_kph": 50.0, "travel_time_s": 6.935741361034949, "congestion": 0.756459096329592, "u_lon": 49.8535811, "u_lat": 40.3761687, "v_lon": 49.8540339, "v_lat": 40.3753742}}, {"type": "Feature", "geometry": {"type": "LineString", "coordinates": [[49.8535811, 40.3761687], [49.8535266, 40.3762696], [49.8532085, 40.3768104], [49.8531696, 40.3768745]]}, "properties": {"edge_id": "276846861-276842654-0", "u": 276846861, "v": 276842654, "key": 0, "name": "Pu\u015fkin k\u00fc\u00e7\u0259si", "highway": "secondary", "length_m": 85.8802143029933, "speed_kph": 50.0, "travel_time_s": 6.183375429815517, "congestion": 0.6744009539027676, "u_lon": 49.8535811, "u_lat": 40.3761687, "v_lon": 49.8531696, "v_lat": 40.3768745}}, {"type": "Feature", "geometry": {"type": "LineString", "coordinates": [[49.8516237, 40.375597], [49.851801, 40.3756525], [49.8528955, 40.3759653], [49.8534515, 40.376134], [49.8535811, 40.3761687]]}, "properties": {"edge_id": "276846862-276846861-0", "u": 276846862, "v": 276846861, "key": 0, "name": "Xaqani k\u00fc\u00e7\u0259si", "highway": "residential", "length_m": 177.59511898003814, "speed_kph": 60.0, "travel_time_s": 10.655707138802288, "congestion": 1.0, "u_lon": 49.8516237, "u_lat": 40.375597, "v_lon": 49.8535811, "v_lat": 40.3761687}}, {"type": "Feature", "geometry": {"type": "LineString", "coordinates": [[49.8499986, 40.3784084], [49.8500675, 40.3782989], [49.8504759, 40.3775745], [49.850547, 40.3774638]]}, "properties": {"edge_id": "276847902-276847903-0", "u": 276847902, "v": 276847903, "key": 0, "name": "Fikr\u0259t \u018fmirov k\u00fc\u00e7\u0259si", "highway": "residential", "length_m": 114.87036316739933, "speed_kph": 55.88235294117647, "travel_time_s": 7.40006971141562, "congestion": 0.807101902346332, "u_lon": 49.8499986, "u_lat": 40.3784084, "v_lon": 49.850547, "v_lat": 40.3774638}}, {"type": "Feature", "geometry": {"type": "LineString", "coordinates": [[49.8499986, 40.3784084], [49.8500441, 40.3784418], [49.8500817, 40.3784715], [49.8502146, 40.3785924], [49.8502707, 40.378637], [49.8503081, 40.3786623], [49.8503619, 40.3786911], [49.8504256, 40.3787141], [49.8505051, 40.3787373], [49.8517217, 40.3790255], [49.8518192, 40.3790486], [49.8519121, 40.3790706]]}, "properties": {"edge_id": "276847902-3828673172-0", "u": 276847902, "v": 3828673172, "key": 0, "name": "Dilar\u0259 \u018fliyeva k\u00fc\u00e7\u0259si", "highway": "secondary", "length_m": 182.1432119408029, "speed_kph": 50.0, "travel_time_s": 13.11431125973781, "congestion": 1.0, "u_lon": 49.8499986, "u_lat": 40.3784084, "v_lon": 49.8519121, "v_lat": 40.3790706}}, {"type": "Feature", "geometry": {"type": "LineString", "coordinates": [[49.8499986, 40.3784084], [49.8499174, 40.3783596], [49.8498242, 40.3783099], [49.8497325, 40.3782731], [49.8494263, 40.3781707], [49.8483428, 40.3778361], [49.8482622, 40.3778124], [49.8481699, 40.3777842]]}, "properties": {"edge_id": "276847902-276374007-0", "u": 276847902, "v": 276374007, "key": 0, "name": "Dilar\u0259 \u018fliyeva k\u00fc\u00e7\u0259si", "highway": "secondary", "length_m": 170.28041336410521, "speed_kph": 55.0, "travel_time_s": 11.145627056559615, "congestion": 1.0, "u_lon": 49.8499986, "u_lat": 40.3784084, "v_lon": 49.8481699, "v_lat": 40.3777842}}, {"type": "Feature", "geometry": {"type": "LineString", "coordinates": [[49.850547, 40.3774638], [49.8504722, 40.3774421], [49.850439, 40.3774304], [49.8499495, 40.3772901], [49.848716, 40.3769454], [49.8486325, 40.3769209]]}, "properties": {"edge_id": "276847903-276374006-0", "u": 276847903, "v": 276374006, "key": 0, "name": "28 May k\u00fc\u00e7\u0259si", "highway": "secondary", "length_m": 173.05618401111218, "speed_kph": 53.888888888888886, "travel_time_s": 11.560866725690794, "congestion": 1.0, "u_lon": 49.850547, "u_lat": 40.3774638, "v_lon": 49.8486325, "v_lat": 40.3769209}}, {"type": "Feature", "geometry": {"type": "LineString", "coordinates": [[49.850547, 40.3774638], [49.8504759, 40.3775745], [49.8500675, 40.3782989], [49.8499986, 40.3784084]]}, "properties": {"edge_id": "276847903-276847902-0", "u": 276847903, "v": 276847902, "key": 0, "name": "Fikr\u0259t \u018fmirov k\u00fc\u00e7\u0259si", "highway": "residential", "length_m": 114.87036316739933, "speed_kph": 55.88235294117647, "travel_time_s": 7.40006971141562, "congestion": 0.807101902346332, "u_lon": 49.850547, "u_lat": 40.3774638, "v_lon": 49.8499986, "v_lat": 40.3784084}}, {"type": "Feature", "geometry": {"type": "LineString", "coordinates": [[49.850547, 40.3774638], [49.8506107, 40.3773822], [49.850772, 40.377102], [49.8509981, 40.3766987], [49.8511567, 40.376408], [49.851223, 40.3762976]]}, "properties": {"edge_id": "276847903-276847904-0", "u": 276847903, "v": 276847904, "key": 0, "name": "Fikr\u0259t \u018fmirov k\u00fc\u00e7\u0259si", "highway": "residential", "length_m": 141.84631664383454, "speed_kph": 55.88235294117647, "travel_time_s": 9.137889030108077, "congestion": 0.996640289516819, "u_lon": 49.850547, "u_lat": 40.3774638, "v_lon": 49.851223, "v_lat": 40.3762976}}, {"type": "Feature", "geometry": {"type": "LineString", "coordinates": [[49.851223, 40.3762976], [49.851305, 40.376321], [49.8530273, 40.3768406], [49.8531696, 40.3768745]]}, "properties": {"edge_id": "276847904-276842654-0", "u": 276847904, "v": 276842654, "key": 0, "name": "Nizami k\u00fc\u00e7\u0259si", "highway": "residential", "length_m": 176.9649970166799, "speed_kph": 60.0, "travel_time_s": 10.617899821000794, "congestion": 1.0, "u_lon": 49.851223, "u_lat": 40.3762976, "v_lon": 49.8531696, "v_lat": 40.3768745}}, {"type": "Feature", "geometry": {"type": "LineString", "coordinates": [[49.851223, 40.3762976], [49.8512593, 40.376227], [49.8515767, 40.3756796], [49.8516237, 40.375597]]}, "properties": {"edge_id": "276847904-276846862-0", "u": 276847904, "v": 276846862, "key": 0, "name": "Fikr\u0259t \u018fmirov k\u00fc\u00e7\u0259si", "highway": "residential", "length_m": 84.98361317702505, "speed_kph": 55.88235294117647, "travel_time_s": 5.474733817298876, "congestion": 0.5971116828758137, "u_lon": 49.851223, "u_lat": 40.3762976, "v_lon": 49.8516237, "v_lat": 40.375597}}, {"type": "Feature", "geometry": {"type": "LineString", "coordinates": [[49.845774, 40.3759053], [49.8456777, 40.3758714], [49.8445671, 40.3754753]]}, "properties": {"edge_id": "276871124-277363701-0", "u": 276871124, "v": 277363701, "key": 0, "name": "28 May k\u00fc\u00e7\u0259si", "highway": "secondary", "length_m": 112.8648057511676, "speed_kph": 53.888888888888886, "travel_time_s": 7.539834446057383, "congestion": 0.8223455943126766, "u_lon": 49.845774, "u_lat": 40.3759053, "v_lon": 49.8445671, "v_lat": 40.3754753}}, {"type": "Feature", "geometry": {"type": "LineString", "coordinates": [[49.845774, 40.3759053], [49.8457519, 40.3759475], [49.845726, 40.3760019], [49.8455581, 40.3763868]]}, "properties": {"edge_id": "276871124-277361074-0", "u": 276871124, "v": 277361074, "key": 0, "name": "R\u0259\u015fid Behbudov k\u00fc\u00e7\u0259si", "highway": "primary", "length_m": 56.5870020251385, "speed_kph": 60.0, "travel_time_s": 3.39522012150831, "congestion": 0.3703057843801973, "u_lon": 49.845774, "u_lat": 40.3759053, "v_lon": 49.8455581, "v_lat": 40.3763868}}, {"type": "Feature", "geometry": {"type": "LineString", "coordinates": [[49.8427027, 40.3830956], [49.8426011, 40.3830795], [49.8425079, 40.3830735], [49.8423894, 40.3830875]]}, "properties": {"edge_id": "276871125-3871110672-0", "u": 276871125, "v": 3871110672, "key": 0, "name": "\u015e\u00f6vqiyar Abdullayev k\u00fc\u00e7.", "highway": "residential", "length_m": 26.869086643984286, "speed_kph": 55.88235294117647, "travel_time_s": 1.7309348448545667, "congestion": 0.18878751965870633, "u_lon": 49.8427027, "u_lat": 40.3830956, "v_lon": 49.8423894, "v_lat": 40.3830875}}, {"type": "Feature", "geometry": {"type": "LineString", "coordinates": [[49.8427027, 40.3830956], [49.8426425, 40.3832025], [49.8425861, 40.3832915], [49.8422257, 40.383796]]}, "properties": {"edge_id": "276871125-1482491359-0", "u": 276871125, "v": 1482491359, "key": 0, "name": "R\u0259\u015fid Behbudov k\u00fc\u00e7\u0259si", "highway": "primary", "length_m": 87.78879295603228, "speed_kph": 60.0, "travel_time_s": 5.267327577361937, "congestion": 0.5744905485703667, "u_lon": 49.8427027, "u_lat": 40.3830956, "v_lon": 49.8422257, "v_lat": 40.383796}}, {"type": "Feature", "geometry": {"type": "LineString", "coordinates": [[49.843111, 40.3754113], [49.8432723, 40.3750336]]}, "properties": {"edge_id": "277360711-276371997-0", "u": 277360711, "v": 276371997, "key": 0, "name": "B\u00fclb\u00fcl prospekti", "highway": "primary", "length_m": 44.165185371131926, "speed_kph": 60.0, "travel_time_s": 2.6499111222679157, "congestion": 0.2890173189222564, "u_lon": 49.843111, "u_lat": 40.3754113, "v_lon": 49.8432723, "v_lat": 40.3750336}}, {"type": "Feature", "geometry": {"type": "LineString", "coordinates": [[49.8455581, 40.3763868], [49.8453847, 40.3768031], [49.845367, 40.3768484], [49.8453354, 40.3769238]]}, "properties": {"edge_id": "277361074-6562460304-0", "u": 277361074, "v": 6562460304, "key": 0, "name": "R\u0259\u015fid Behbudov k\u00fc\u00e7\u0259si", "highway": "primary", "length_m": 62.62164062534672, "speed_kph": 60.0, "travel_time_s": 3.7572984375208036, "congestion": 0.40979650663666856, "u_lon": 49.8455581, "u_lat": 40.3763868, "v_lon": 49.8453354, "v_lat": 40.3769238}}, {"type": "Feature", "geometry": {"type": "LineString", "coordinates": [[49.842983, 40.3757311], [49.843111, 40.3754113]]}, "properties": {"edge_id": "277361672-277360711-0", "u": 277361672, "v": 277360711, "key": 0, "name": "B\u00fclb\u00fcl prospekti", "highway": "primary", "length_m": 37.17653963115278, "speed_kph": 60.0, "travel_time_s": 2.2305923778691668, "congestion": 0.2432835664723806, "u_lon": 49.842983, "u_lat": 40.3757311, "v_lon": 49.843111, "v_lat": 40.3754113}}, {"type": "Feature", "geometry": {"type": "LineString", "coordinates": [[49.842983, 40.3757311], [49.8430049, 40.3757367], [49.8430256, 40.3757419], [49.8430731, 40.375754], [49.8431074, 40.3757627], [49.8443304, 40.3760732]]}, "properties": {"edge_id": "277361672-339114147-0", "u": 277361672, "v": 339114147, "key": 0, "name": "B\u0259\u015fir S\u0259f\u0259ro\u011flu k\u00fc\u00e7.", "highway": "residential", "length_m": 120.30983758109366, "speed_kph": 55.88235294117647, "travel_time_s": 7.75048637890835, "congestion": 0.8453207259488924, "u_lon": 49.842983, "u_lat": 40.3757311, "v_lon": 49.8443304, "v_lat": 40.3760732}}, {"type": "Feature", "geometry": {"type": "LineString", "coordinates": [[49.8428885, 40.376007], [49.8429202, 40.3759041], [49.8429523, 40.3758131], [49.842983, 40.3757311]]}, "properties": {"edge_id": "277361992-277361672-0", "u": 277361992, "v": 277361672, "key": 0, "name": "B\u00fclb\u00fcl prospekti", "highway": "primary", "length_m": 31.71220706427919, "speed_kph": 60.0, "travel_time_s": 1.9027324238567516, "congestion": 0.20752493136406613, "u_lon": 49.8428885, "u_lat": 40.376007, "v_lon": 49.842983, "v_lat": 40.3757311}}, {"type": "Feature", "geometry": {"type": "LineString", "coordinates": [[49.8448901, 40.3779476], [49.8444863, 40.3788622], [49.844416, 40.3790192]]}, "properties": {"edge_id": "277363535-482983954-0", "u": 277363535, "v": 482983954, "key": 0, "name": "R\u0259\u015fid Behbudov k\u00fc\u00e7\u0259si", "highway": "primary", "length_m": 125.74224658659455, "speed_kph": 60.0, "travel_time_s": 7.544534795195673, "congestion": 0.8228582463388263, "u_lon": 49.8448901, "u_lat": 40.3779476, "v_lon": 49.844416, "v_lat": 40.3790192}}, {"type": "Feature", "geometry": {"type": "LineString", "coordinates": [[49.8448901, 40.3779476], [49.8450457, 40.3779826], [49.8452999, 40.378045], [49.8457573, 40.3781576]]}, "properties": {"edge_id": "277363535-11442905405-0", "u": 277363535, "v": 11442905405, "key": 0, "name": "\u015e\u0259msi B\u0259d\u0259lb\u0259yli k\u00fc\u00e7\u0259si", "highway": "primary", "length_m": 77.08354608010802, "speed_kph": 60.0, "travel_time_s": 4.625012764806481, "congestion": 0.504435329182499, "u_lon": 49.8448901, "u_lat": 40.3779476, "v_lon": 49.8457573, "v_lat": 40.3781576}}, {"type": "Feature", "geometry": {"type": "LineString", "coordinates": [[49.8477287, 40.3786776], [49.8478137, 40.3784988], [49.8481217, 40.3778769], [49.8481699, 40.3777842]]}, "properties": {"edge_id": "277363537-276374007-0", "u": 277363537, "v": 276374007, "key": 0, "name": "Azadl\u0131q prospekti", "highway": "primary", "length_m": 106.14228670906986, "speed_kph": 60.0, "travel_time_s": 6.368537202544192, "congestion": 0.694595955414793, "u_lon": 49.8477287, "u_lat": 40.3786776, "v_lon": 49.8481699, "v_lat": 40.3777842}}, {"type": "Feature", "geometry": {"type": "LineString", "coordinates": [[49.8438612, 40.3777399], [49.8446398, 40.3778922], [49.8447352, 40.3779123], [49.8448901, 40.3779476]]}, "properties": {"edge_id": "277363690-277363535-0", "u": 277363690, "v": 277363535, "key": 0, "name": "\u015e\u0259msi B\u0259d\u0259lb\u0259yli k\u00fc\u00e7\u0259si", "highway": "primary", "length_m": 90.17266165421371, "speed_kph": 60.0, "travel_time_s": 5.4103596992528225, "congestion": 0.5900906039991259, "u_lon": 49.8438612, "u_lat": 40.3777399, "v_lon": 49.8448901, "v_lat": 40.3779476}}, {"type": "Feature", "geometry": {"type": "LineString", "coordinates": [[49.8445671, 40.3754753], [49.8443347, 40.3753949], [49.8434848, 40.375098], [49.8434231, 40.3750765], [49.8433498, 40.3750546], [49.8432723, 40.3750336]]}, "properties": {"edge_id": "277363701-276371997-0", "u": 277363701, "v": 276371997, "key": 0, "name": "28 May k\u00fc\u00e7\u0259si", "highway": "secondary", "length_m": 120.21054474937651, "speed_kph": 53.888888888888886, "travel_time_s": 8.030560102844946, "congestion": 0.8758674699934436, "u_lon": 49.8445671, "u_lat": 40.3754753, "v_lon": 49.8432723, "v_lat": 40.3750336}}, {"type": "Feature", "geometry": {"type": "LineString", "coordinates": [[49.8439988, 40.3772905], [49.8438908, 40.3776572], [49.8438852, 40.3776697], [49.8438612, 40.3777399]]}, "properties": {"edge_id": "277363717-277363690-0", "u": 277363717, "v": 277363690, "key": 0, "name": "S\u00fcleyman \u018fl\u0259sg\u0259rov k\u00fc\u00e7\u0259si", "highway": "residential", "length_m": 51.32386016709998, "speed_kph": 55.88235294117647, "travel_time_s": 3.306337097080546, "congestion": 0.36061159758202715, "u_lon": 49.8439988, "u_lat": 40.3772905, "v_lon": 49.8438612, "v_lat": 40.3777399}}, {"type": "Feature", "geometry": {"type": "LineString", "coordinates": [[49.8443304, 40.3760732], [49.8444208, 40.3757876], [49.8444611, 40.3756864], [49.8445229, 40.3755585], [49.8445671, 40.3754753]]}, "properties": {"edge_id": "339114147-277363701-0", "u": 339114147, "v": 277363701, "key": 0, "name": "S\u00fcleyman \u018fl\u0259sg\u0259rov k\u00fc\u00e7\u0259si", "highway": "residential", "length_m": 69.56205732107769, "speed_kph": 55.88235294117647, "travel_time_s": 4.481260955842058, "congestion": 0.48875677978965587, "u_lon": 49.8443304, "u_lat": 40.3760732, "v_lon": 49.8445671, "v_lat": 40.3754753}}, {"type": "Feature", "geometry": {"type": "LineString", "coordinates": [[49.8443304, 40.3760732], [49.8454509, 40.3763579], [49.8455581, 40.3763868]]}, "properties": {"edge_id": "339114147-277361074-0", "u": 339114147, "v": 277361074, "key": 0, "name": "B\u0259\u015fir S\u0259f\u0259ro\u011flu k\u00fc\u00e7.", "highway": "residential", "length_m": 109.6894227349545, "speed_kph": 55.88235294117647, "travel_time_s": 7.066308075136017, "congestion": 0.7706995896551504, "u_lon": 49.8443304, "u_lat": 40.3760732, "v_lon": 49.8455581, "v_lat": 40.3763868}}, {"type": "Feature", "geometry": {"type": "LineString", "coordinates": [[49.8441897, 40.3766789], [49.8443304, 40.3760732]]}, "properties": {"edge_id": "339114149-339114147-0", "u": 339114149, "v": 339114147, "key": 0, "name": "S\u00fcleyman \u018fl\u0259sg\u0259rov k\u00fc\u00e7\u0259si", "highway": "residential", "length_m": 68.39730040837622, "speed_kph": 55.88235294117647, "travel_time_s": 4.406226089465921, "congestion": 0.48057296723704446, "u_lon": 49.8441897, "u_lat": 40.3766789, "v_lon": 49.8443304, "v_lat": 40.3760732}}, {"type": "Feature", "geometry": {"type": "LineString", "coordinates": [[49.8441897, 40.3766789], [49.8441167, 40.3769252], [49.8439988, 40.3772905]]}, "properties": {"edge_id": "339114149-277363717-0", "u": 339114149, "v": 277363717, "key": 0, "name": "S\u00fcleyman \u018fl\u0259sg\u0259rov k\u00fc\u00e7\u0259si", "highway": "residential", "length_m": 69.90608098748667, "speed_kph": 55.88235294117647, "travel_time_s": 4.503423322562299, "congestion": 0.49117395814580167, "u_lon": 49.8441897, "u_lat": 40.3766789, "v_lon": 49.8439988, "v_lat": 40.3772905}}, {"type": "Feature", "geometry": {"type": "LineString", "coordinates": [[49.8441897, 40.3766789], [49.845157, 40.3768821], [49.845221, 40.3768968], [49.8452815, 40.3769112], [49.8453354, 40.3769238]]}, "properties": {"edge_id": "339114149-6562460304-0", "u": 339114149, "v": 6562460304, "key": 0, "name": "Dilar\u0259 \u018fliyeva k\u00fc\u00e7\u0259si", "highway": "residential", "length_m": 100.80425300994482, "speed_kph": 60.0, "travel_time_s": 6.048255180596689, "congestion": 0.6596638210860599, "u_lon": 49.8441897, "u_lat": 40.3766789, "v_lon": 49.8453354, "v_lat": 40.3769238}}, {"type": "Feature", "geometry": {"type": "LineString", "coordinates": [[49.8440574, 40.3798743], [49.8441748, 40.3799034], [49.8454824, 40.3802399]]}, "properties": {"edge_id": "366835338-366835339-0", "u": 366835338, "v": 366835339, "key": 0, "name": "S\u00fcleyman R\u0259himov k\u00fc\u00e7\u0259si", "highway": "secondary", "length_m": 127.36644861146218, "speed_kph": 53.888888888888886, "travel_time_s": 8.508603989714175, "congestion": 0.9280061856466209, "u_lon": 49.8440574, "u_lat": 40.3798743, "v_lon": 49.8454824, "v_lat": 40.3802399}}, {"type": "Feature", "geometry": {"type": "LineString", "coordinates": [[49.8440574, 40.3798743], [49.844011, 40.3799822], [49.8437145, 40.3806953], [49.8436954, 40.3807389], [49.8436741, 40.3807893]]}, "properties": {"edge_id": "366835338-670215261-0", "u": 366835338, "v": 670215261, "key": 0, "name": "R\u0259\u015fid Behbudov k\u00fc\u00e7\u0259si", "highway": "primary", "length_m": 106.79920432575582, "speed_kph": 60.0, "travel_time_s": 6.4079522595453495, "congestion": 0.6988948294426484, "u_lon": 49.8440574, "u_lat": 40.3798743, "v_lon": 49.8436741, "v_lat": 40.3807893}}, {"type": "Feature", "geometry": {"type": "LineString", "coordinates": [[49.8454824, 40.3802399], [49.8456035, 40.3799729], [49.8458086, 40.3795219], [49.8458296, 40.3794523], [49.8458525, 40.3793981]]}, "properties": {"edge_id": "366835339-1490151990-0", "u": 366835339, "v": 1490151990, "key": 0, "name": "S\u00fcleyman R\u00fcst\u0259m k\u00fc\u00e7\u0259si", "highway": "residential", "length_m": 98.75636099508546, "speed_kph": 55.88235294117647, "travel_time_s": 6.361988729367611, "congestion": 0.6938817344189923, "u_lon": 49.8454824, "u_lat": 40.3802399, "v_lon": 49.8458525, "v_lat": 40.3793981}}, {"type": "Feature", "geometry": {"type": "LineString", "coordinates": [[49.8454824, 40.3802399], [49.8467736, 40.3805751], [49.8468575, 40.3805991]]}, "properties": {"edge_id": "366835339-276374009-0", "u": 366835339, "v": 276374009, "key": 0, "name": "S\u00fcleyman R\u0259himov k\u00fc\u00e7\u0259si", "highway": "secondary", "length_m": 123.13766816027461, "speed_kph": 53.888888888888886, "travel_time_s": 8.226104017304944, "congestion": 0.8971948184519922, "u_lon": 49.8454824, "u_lat": 40.3802399, "v_lon": 49.8468575, "v_lat": 40.3805991}}, {"type": "Feature", "geometry": {"type": "LineString", "coordinates": [[49.8518984, 40.3830774], [49.8519847, 40.3831749], [49.8520946, 40.3832791], [49.8531514, 40.3841791], [49.8532612, 40.3842683]]}, "properties": {"edge_id": "366835345-1312030483-0", "u": 366835345, "v": 1312030483, "key": 0, "name": "X\u0259tai prospekti", "highway": "secondary", "length_m": 175.80051266615922, "speed_kph": 53.888888888888886, "travel_time_s": 11.744199196667134, "congestion": 1.0, "u_lon": 49.8518984, "u_lat": 40.3830774, "v_lon": 49.8532612, "v_lat": 40.3842683}}, {"type": "Feature", "geometry": {"type": "LineString", "coordinates": [[49.8518984, 40.3830774], [49.8516059, 40.3834039], [49.8515366, 40.3834851], [49.8513995, 40.3836632], [49.8513389, 40.3837532], [49.8512969, 40.3838436], [49.8512162, 40.3841005], [49.8511983, 40.3841385], [49.8511581, 40.3841886], [49.8510929, 40.3842409], [49.8508328, 40.3844183], [49.8507175, 40.3844969], [49.8505577, 40.3845979], [49.8504742, 40.3846467]]}, "properties": {"edge_id": "366835345-1312030461-0", "u": 366835345, "v": 1312030461, "key": 0, "name": "Nur\u0259ddin S\u00fcleymanov k\u00fc\u00e7.", "highway": "tertiary", "length_m": 217.17831166893157, "speed_kph": 50.0, "travel_time_s": 15.636838440163073, "congestion": 1.0, "u_lon": 49.8518984, "u_lat": 40.3830774, "v_lon": 49.8504742, "v_lat": 40.3846467}}, {"type": "Feature", "geometry": {"type": "LineString", "coordinates": [[49.844416, 40.3790192], [49.8422162, 40.3784403]]}, "properties": {"edge_id": "482983954-276372003-0", "u": 482983954, "v": 276372003, "key": 0, "name": "F\u00fczuli k\u00fc\u00e7\u0259si", "highway": "primary", "length_m": 197.14172112725322, "speed_kph": 60.0, "travel_time_s": 11.828503267635194, "congestion": 1.0, "u_lon": 49.844416, "u_lat": 40.3790192, "v_lon": 49.8422162, "v_lat": 40.3784403}}, {"type": "Feature", "geometry": {"type": "LineString", "coordinates": [[49.844416, 40.3790192], [49.844278, 40.3793477], [49.8441005, 40.3797732], [49.8440821, 40.3798172], [49.8440574, 40.3798743]]}, "properties": {"edge_id": "482983954-366835338-0", "u": 482983954, "v": 366835338, "key": 0, "name": "R\u0259\u015fid Behbudov k\u00fc\u00e7\u0259si", "highway": "primary", "length_m": 99.8172640330214, "speed_kph": 60.0, "travel_time_s": 5.989035841981284, "congestion": 0.6532049574920518, "u_lon": 49.844416, "u_lat": 40.3790192, "v_lon": 49.8440574, "v_lat": 40.3798743}}, {"type": "Feature", "geometry": {"type": "LineString", "coordinates": [[49.8430507, 40.3823358], [49.8434917, 40.3824429]]}, "properties": {"edge_id": "670215228-10710217913-0", "u": 670215228, "v": 10710217913, "key": 0, "name": "Mikay\u0131l R\u0259fili k\u00fc\u00e7\u0259si", "highway": "residential", "length_m": 39.20582250034854, "speed_kph": 55.88235294117647, "travel_time_s": 2.5256803547592956, "congestion": 0.2754678669986513, "u_lon": 49.8430507, "u_lat": 40.3823358, "v_lon": 49.8434917, "v_lat": 40.3824429}}, {"type": "Feature", "geometry": {"type": "LineString", "coordinates": [[49.8430507, 40.3823358], [49.8429149, 40.382631], [49.8428066, 40.3828739]]}, "properties": {"edge_id": "670215228-3880349663-0", "u": 670215228, "v": 3880349663, "key": 0, "name": "R\u0259\u015fid Behbudov k\u00fc\u00e7\u0259si", "highway": "primary", "length_m": 63.30629969472563, "speed_kph": 60.0, "travel_time_s": 3.798377981683538, "congestion": 0.4142769209481873, "u_lon": 49.8430507, "u_lat": 40.3823358, "v_lon": 49.8428066, "v_lat": 40.3828739}}, {"type": "Feature", "geometry": {"type": "LineString", "coordinates": [[49.8433086, 40.3816842], [49.8430507, 40.3823358]]}, "properties": {"edge_id": "670215242-670215228-0", "u": 670215242, "v": 670215228, "key": 0, "name": "R\u0259\u015fid Behbudov k\u00fc\u00e7\u0259si", "highway": "primary", "length_m": 75.67611131326866, "speed_kph": 60.0, "travel_time_s": 4.54056667879612, "congestion": 0.495225065046808, "u_lon": 49.8433086, "u_lat": 40.3816842, "v_lon": 49.8430507, "v_lat": 40.3823358}}, {"type": "Feature", "geometry": {"type": "LineString", "coordinates": [[49.8436741, 40.3807893], [49.8438367, 40.3808321], [49.8445638, 40.3810187], [49.8450696, 40.3811259]]}, "properties": {"edge_id": "670215261-1490151991-0", "u": 670215261, "v": 1490151991, "key": 0, "name": "\u015eamil \u018fzizb\u0259yov k\u00fc\u00e7\u0259si", "highway": "residential", "length_m": 124.03108215249719, "speed_kph": 55.88235294117647, "travel_time_s": 7.990212871297714, "congestion": 0.8714669266734334, "u_lon": 49.8436741, "u_lat": 40.3807893, "v_lon": 49.8450696, "v_lat": 40.3811259}}, {"type": "Feature", "geometry": {"type": "LineString", "coordinates": [[49.8436741, 40.3807893], [49.84346, 40.3813097], [49.8433306, 40.3816252], [49.8433086, 40.3816842]]}, "properties": {"edge_id": "670215261-670215242-0", "u": 670215261, "v": 670215242, "key": 0, "name": "R\u0259\u015fid Behbudov k\u00fc\u00e7\u0259si", "highway": "primary", "length_m": 104.21547154143228, "speed_kph": 60.0, "travel_time_s": 6.252928292485937, "congestion": 0.6819868618690574, "u_lon": 49.8436741, "u_lat": 40.3807893, "v_lon": 49.8433086, "v_lat": 40.3816842}}, {"type": "Feature", "geometry": {"type": "LineString", "coordinates": [[49.8473413, 40.3833691], [49.8457788, 40.3829775], [49.8457509, 40.3829705]]}, "properties": {"edge_id": "1005353957-4767987221-0", "u": 1005353957, "v": 4767987221, "key": 0, "name": "Mikay\u0131l R\u0259fili k\u00fc\u00e7\u0259si", "highway": "residential", "length_m": 141.81192305689098, "speed_kph": 55.88235294117647, "travel_time_s": 9.135673359033397, "congestion": 0.9963986333690953, "u_lon": 49.8473413, "u_lat": 40.3833691, "v_lon": 49.8457509, "v_lat": 40.3829705}}, {"type": "Feature", "geometry": {"type": "LineString", "coordinates": [[49.8473413, 40.3833691], [49.8472144, 40.3836449], [49.8470104, 40.3840961]]}, "properties": {"edge_id": "1005353957-1311738985-0", "u": 1005353957, "v": 1311738985, "key": 0, "name": "Mir\u0259li Qa\u015fqay k\u00fc\u00e7.", "highway": "residential", "length_m": 85.55985095309546, "speed_kph": 60.0, "travel_time_s": 5.133591057185727, "congestion": 0.5599043346485051, "u_lon": 49.8473413, "u_lat": 40.3833691, "v_lon": 49.8470104, "v_lat": 40.3840961}}, {"type": "Feature", "geometry": {"type": "LineString", "coordinates": [[49.8480533, 40.3818408], [49.8497088, 40.3822451], [49.8497737, 40.382272], [49.8498114, 40.3823039], [49.8498357, 40.3823476], [49.8498443, 40.3823844], [49.849824, 40.3824752], [49.849735, 40.3826801], [49.8494983, 40.3832334]]}, "properties": {"edge_id": "1104367652-1104367830-0", "u": 1104367652, "v": 1104367830, "key": 0, "name": ["Ceyhun Hac\u0131b\u0259yli k\u00fc\u00e7\u0259si", "\u015eamil \u018fzizb\u0259yov k\u00fc\u00e7\u0259si"], "highway": "residential", "length_m": 266.6676231712821, "speed_kph": 55.88235294117647, "travel_time_s": 17.179008987455227, "congestion": 1.0, "u_lon": 49.8480533, "u_lat": 40.3818408, "v_lon": 49.8494983, "v_lat": 40.3832334}}, {"type": "Feature", "geometry": {"type": "LineString", "coordinates": [[49.8480533, 40.3818408], [49.8480164, 40.3819214], [49.8479587, 40.3820394], [49.8479228, 40.3821148], [49.8476254, 40.3827391]]}, "properties": {"edge_id": "1104367652-1104367782-0", "u": 1104367652, "v": 1104367782, "key": 0, "name": "Mir\u0259li Qa\u015fqay k\u00fc\u00e7.", "highway": "residential", "length_m": 106.26006131866161, "speed_kph": 60.0, "travel_time_s": 6.375603679119697, "congestion": 0.6953666733822438, "u_lon": 49.8480533, "u_lat": 40.3818408, "v_lon": 49.8476254, "v_lat": 40.3827391}}, {"type": "Feature", "geometry": {"type": "LineString", "coordinates": [[49.8492102, 40.3838336], [49.8493405, 40.3835533]]}, "properties": {"edge_id": "1104367669-1490148194-0", "u": 1104367669, "v": 1490148194, "key": 0, "name": "Ceyhun Hac\u0131b\u0259yli k\u00fc\u00e7\u0259si", "highway": "secondary", "length_m": 33.064254670830486, "speed_kph": 53.888888888888886, "travel_time_s": 2.2088285594534187, "congestion": 0.24090985650332816, "u_lon": 49.8492102, "u_lat": 40.3838336, "v_lon": 49.8493405, "v_lat": 40.3835533}}, {"type": "Feature", "geometry": {"type": "LineString", "coordinates": [[49.8492102, 40.3838336], [49.8490564, 40.3841574], [49.8490303, 40.3842135], [49.8488813, 40.3845337]]}, "properties": {"edge_id": "1104367669-1311738988-0", "u": 1104367669, "v": 1311738988, "key": 0, "name": ["Ceyhun Hac\u0131b\u0259yli k\u00fc\u00e7\u0259si", "Ceyhunb\u0259y Hac\u0131b\u0259yli k\u00fc\u00e7\u0259si"], "highway": "secondary", "length_m": 82.68238981310182, "speed_kph": 53.888888888888886, "travel_time_s": 5.52352459782371, "congestion": 0.6024331370396587, "u_lon": 49.8492102, "u_lat": 40.3838336, "v_lon": 49.8488813, "v_lat": 40.3845337}}, {"type": "Feature", "geometry": {"type": "LineString", "coordinates": [[49.8492102, 40.3838336], [49.8491281, 40.3838123], [49.8485153, 40.3836582], [49.848258, 40.3835929], [49.8473413, 40.3833691]]}, "properties": {"edge_id": "1104367669-1005353957-0", "u": 1104367669, "v": 1005353957, "key": 0, "name": "Mikay\u0131l R\u0259fili k\u00fc\u00e7\u0259si", "highway": "residential", "length_m": 166.51156709549866, "speed_kph": 55.88235294117647, "travel_time_s": 10.72685042762581, "congestion": 1.0, "u_lon": 49.8492102, "u_lat": 40.3838336, "v_lon": 49.8473413, "v_lat": 40.3833691}}, {"type": "Feature", "geometry": {"type": "LineString", "coordinates": [[49.8444043, 40.3826555], [49.8445429, 40.3823149], [49.8446832, 40.3819988]]}, "properties": {"edge_id": "1104367679-1490151992-0", "u": 1104367679, "v": 1490151992, "key": 0, "name": "S\u00fcleyman R\u00fcst\u0259m k\u00fc\u00e7\u0259si", "highway": "residential", "length_m": 76.75412898973927, "speed_kph": 55.88235294117647, "travel_time_s": 4.944581783338993, "congestion": 0.5392896985123793, "u_lon": 49.8444043, "u_lat": 40.3826555, "v_lon": 49.8446832, "v_lat": 40.3819988}}, {"type": "Feature", "geometry": {"type": "LineString", "coordinates": [[49.8476254, 40.3827391], [49.8473413, 40.3833691]]}, "properties": {"edge_id": "1104367782-1005353957-0", "u": 1104367782, "v": 1005353957, "key": 0, "name": "Mir\u0259li Qa\u015fqay k\u00fc\u00e7.", "highway": "residential", "length_m": 74.07063331556355, "speed_kph": 60.0, "travel_time_s": 4.444237998933813, "congestion": 0.4847188044574729, "u_lon": 49.8476254, "u_lat": 40.3827391, "v_lon": 49.8473413, "v_lat": 40.3833691}}, {"type": "Feature", "geometry": {"type": "LineString", "coordinates": [[49.8476254, 40.3827391], [49.8460814, 40.3823365], [49.8460407, 40.3823259]]}, "properties": {"edge_id": "1104367782-276374011-0", "u": 1104367782, "v": 276374011, "key": 0, "name": "Salat\u0131n \u018fsg\u0259rova k\u00fc\u00e7\u0259si", "highway": "secondary", "length_m": 141.8720180020071, "speed_kph": 53.888888888888886, "travel_time_s": 9.477635841783568, "congestion": 1.0, "u_lon": 49.8476254, "u_lat": 40.3827391, "v_lon": 49.8460407, "v_lat": 40.3823259}}, {"type": "Feature", "geometry": {"type": "LineString", "coordinates": [[49.8494983, 40.3832334], [49.8496831, 40.3834163], [49.8498574, 40.3836642], [49.8499956, 40.3838843], [49.8500552, 40.3839793], [49.8504264, 40.3845706], [49.8504742, 40.3846467]]}, "properties": {"edge_id": "1104367830-1312030461-0", "u": 1104367830, "v": 1312030461, "key": 0, "name": "T\u0259briz k\u00fc\u00e7\u0259si", "highway": "secondary", "length_m": 178.03107904008166, "speed_kph": 53.888888888888886, "travel_time_s": 11.893210228657004, "congestion": 1.0, "u_lon": 49.8494983, "u_lat": 40.3832334, "v_lon": 49.8504742, "v_lat": 40.3846467}}, {"type": "Feature", "geometry": {"type": "LineString", "coordinates": [[49.8494983, 40.3832334], [49.8493502, 40.3831779], [49.8476254, 40.3827391]]}, "properties": {"edge_id": "1104367830-1104367782-0", "u": 1104367830, "v": 1104367782, "key": 0, "name": "Salat\u0131n \u018fsg\u0259rova k\u00fc\u00e7\u0259si", "highway": "secondary", "length_m": 168.00444283236016, "speed_kph": 53.888888888888886, "travel_time_s": 11.223389583027773, "congestion": 1.0, "u_lon": 49.8494983, "u_lat": 40.3832334, "v_lon": 49.8476254, "v_lat": 40.3827391}}, {"type": "Feature", "geometry": {"type": "LineString", "coordinates": [[49.8494983, 40.3832334], [49.8493772, 40.383463], [49.8493405, 40.3835533]]}, "properties": {"edge_id": "1104367830-1490148194-0", "u": 1104367830, "v": 1490148194, "key": 0, "name": "Ceyhun Hac\u0131b\u0259yli k\u00fc\u00e7\u0259si", "highway": "secondary", "length_m": 38.02490979865969, "speed_kph": 53.888888888888886, "travel_time_s": 2.5402207783022144, "congestion": 0.27705374442414465, "u_lon": 49.8494983, "u_lat": 40.3832334, "v_lon": 49.8493405, "v_lat": 40.3835533}}, {"type": "Feature", "geometry": {"type": "LineString", "coordinates": [[49.8496955, 40.3835152], [49.8494983, 40.3832334]]}, "properties": {"edge_id": "1304761803-1104367830-0", "u": 1304761803, "v": 1104367830, "key": 0, "name": "T\u0259briz k\u00fc\u00e7\u0259si", "highway": "secondary", "length_m": 35.508512237087146, "speed_kph": 53.888888888888886, "travel_time_s": 2.372115044292008, "congestion": 0.25871899042775165, "u_lon": 49.8496955, "u_lat": 40.3835152, "v_lon": 49.8494983, "v_lat": 40.3832334}}, {"type": "Feature", "geometry": {"type": "LineString", "coordinates": [[49.8496955, 40.3835152], [49.8496114, 40.38345], [49.8495486, 40.3834301], [49.849496, 40.3834255], [49.8494431, 40.383435], [49.8494051, 40.3834607], [49.8493405, 40.3835533]]}, "properties": {"edge_id": "1304761803-1490148194-0", "u": 1304761803, "v": 1490148194, "key": 0, "name": NaN, "highway": "secondary_link", "length_m": 40.97718889537202, "speed_kph": 51.628540305010894, "travel_time_s": 2.8572932558587496, "congestion": 0.31163582402574197, "u_lon": 49.8496955, "u_lat": 40.3835152, "v_lon": 49.8493405, "v_lat": 40.3835533}}, {"type": "Feature", "geometry": {"type": "LineString", "coordinates": [[49.8437619, 40.3841845], [49.8439045, 40.3838313], [49.8440031, 40.3835872], [49.844073, 40.3834289]]}, "properties": {"edge_id": "1311738981-1311738984-0", "u": 1311738981, "v": 1311738984, "key": 0, "name": "S\u00fcleyman R\u00fcst\u0259m k\u00fc\u00e7\u0259si", "highway": "residential", "length_m": 88.05904596448457, "speed_kph": 55.88235294117647, "travel_time_s": 5.6728564347646895, "congestion": 0.6187202822120899, "u_lon": 49.8437619, "u_lat": 40.3841845, "v_lon": 49.844073, "v_lat": 40.3834289}}, {"type": "Feature", "geometry": {"type": "LineString", "coordinates": [[49.844073, 40.3834289], [49.8438092, 40.3833694], [49.8428966, 40.3831475], [49.8428373, 40.3831307], [49.8427027, 40.3830956]]}, "properties": {"edge_id": "1311738984-276871125-0", "u": 1311738984, "v": 276871125, "key": 0, "name": "Sahib Zeynalov k\u00fc\u00e7.", "highway": "residential", "length_m": 121.85218103106733, "speed_kph": 55.88235294117647, "travel_time_s": 7.849845767475074, "congestion": 0.8561575362298094, "u_lon": 49.844073, "u_lat": 40.3834289, "v_lon": 49.8427027, "v_lat": 40.3830956}}, {"type": "Feature", "geometry": {"type": "LineString", "coordinates": [[49.844073, 40.3834289], [49.8441712, 40.3832188], [49.8442373, 40.3830823], [49.8444043, 40.3826555]]}, "properties": {"edge_id": "1311738984-1104367679-0", "u": 1311738984, "v": 1104367679, "key": 0, "name": "S\u00fcleyman R\u00fcst\u0259m k\u00fc\u00e7\u0259si", "highway": "residential", "length_m": 90.497571834936, "speed_kph": 55.88235294117647, "travel_time_s": 5.829948838208508, "congestion": 0.6358538475173022, "u_lon": 49.844073, "u_lat": 40.3834289, "v_lon": 49.8444043, "v_lat": 40.3826555}}, {"type": "Feature", "geometry": {"type": "LineString", "coordinates": [[49.8470104, 40.3840961], [49.8468754, 40.3843866], [49.8466967, 40.3847787], [49.8466676, 40.3848388]]}, "properties": {"edge_id": "1311738985-1311738992-0", "u": 1311738985, "v": 1311738992, "key": 0, "name": "Mir\u0259li Qa\u015fqay k\u00fc\u00e7.", "highway": "residential", "length_m": 87.54115399213255, "speed_kph": 60.0, "travel_time_s": 5.2524692395279535, "congestion": 0.5728699972513687, "u_lon": 49.8470104, "u_lat": 40.3840961, "v_lon": 49.8466676, "v_lat": 40.3848388}}, {"type": "Feature", "geometry": {"type": "LineString", "coordinates": [[49.8470104, 40.3840961], [49.8462031, 40.3839114], [49.8454294, 40.3837343], [49.8453957, 40.3837266]]}, "properties": {"edge_id": "1311738985-276374013-0", "u": 1311738985, "v": 276374013, "key": 0, "name": "Sahib Zeynalov k\u00fc\u00e7.", "highway": "residential", "length_m": 142.80265477714428, "speed_kph": 55.88235294117647, "travel_time_s": 9.19949733932761, "congestion": 1.0, "u_lon": 49.8470104, "u_lat": 40.3840961, "v_lon": 49.8453957, "v_lat": 40.3837266}}, {"type": "Feature", "geometry": {"type": "LineString", "coordinates": [[49.8470104, 40.3840961], [49.8472035, 40.3841426], [49.84828, 40.3844019], [49.8483728, 40.384426], [49.8488813, 40.3845337]]}, "properties": {"edge_id": "1311738985-1311738988-0", "u": 1311738985, "v": 1311738988, "key": 0, "name": "Sahib Zeynalov k\u00fc\u00e7.", "highway": "residential", "length_m": 165.78973471019324, "speed_kph": 55.88235294117647, "travel_time_s": 10.68034922554087, "congestion": 1.0, "u_lon": 49.8470104, "u_lat": 40.3840961, "v_lon": 49.8488813, "v_lat": 40.3845337}}, {"type": "Feature", "geometry": {"type": "LineString", "coordinates": [[49.8488813, 40.3845337], [49.8483728, 40.384426], [49.84828, 40.3844019], [49.8472035, 40.3841426], [49.8470104, 40.3840961]]}, "properties": {"edge_id": "1311738988-1311738985-0", "u": 1311738988, "v": 1311738985, "key": 0, "name": "Sahib Zeynalov k\u00fc\u00e7.", "highway": "residential", "length_m": 165.78973471019324, "speed_kph": 55.88235294117647, "travel_time_s": 10.68034922554087, "congestion": 1.0, "u_lon": 49.8488813, "u_lat": 40.3845337, "v_lon": 49.8470104, "v_lat": 40.3840961}}, {"type": "Feature", "geometry": {"type": "LineString", "coordinates": [[49.8488813, 40.3845337], [49.8490303, 40.3842135], [49.8490564, 40.3841574], [49.8492102, 40.3838336]]}, "properties": {"edge_id": "1311738988-1104367669-0", "u": 1311738988, "v": 1104367669, "key": 0, "name": ["Ceyhun Hac\u0131b\u0259yli k\u00fc\u00e7\u0259si", "Ceyhunb\u0259y Hac\u0131b\u0259yli k\u00fc\u00e7\u0259si"], "highway": "secondary", "length_m": 82.68238981310182, "speed_kph": 53.888888888888886, "travel_time_s": 5.52352459782371, "congestion": 0.6024331370396587, "u_lon": 49.8488813, "u_lat": 40.3845337, "v_lon": 49.8492102, "v_lat": 40.3838336}}, {"type": "Feature", "geometry": {"type": "LineString", "coordinates": [[49.8466676, 40.3848388], [49.8465948, 40.3848247], [49.8450828, 40.384488], [49.8450178, 40.3844736]]}, "properties": {"edge_id": "1311738992-276374015-0", "u": 1311738992, "v": 276374015, "key": 0, "name": "Abbas Zamanov k\u00fc\u00e7\u0259si", "highway": "residential", "length_m": 145.52058253892955, "speed_kph": 55.88235294117647, "travel_time_s": 9.374589106718409, "congestion": 1.0, "u_lon": 49.8466676, "u_lat": 40.3848388, "v_lon": 49.8450178, "v_lat": 40.3844736}}, {"type": "Feature", "geometry": {"type": "LineString", "coordinates": [[49.8504742, 40.3846467], [49.8504268, 40.3846869]]}, "properties": {"edge_id": "1312030461-1312030487-0", "u": 1312030461, "v": 1312030487, "key": 0, "name": NaN, "highway": "residential", "length_m": 6.008261318405087, "speed_kph": 55.88235294117647, "travel_time_s": 0.38705851861725404, "congestion": 0.04221523294752559, "u_lon": 49.8504742, "u_lat": 40.3846467, "v_lon": 49.8504268, "v_lat": 40.3846869}}, {"type": "Feature", "geometry": {"type": "LineString", "coordinates": [[49.8532612, 40.3842683], [49.8531514, 40.3841791], [49.8520946, 40.3832791], [49.8519847, 40.3831749], [49.8518984, 40.3830774]]}, "properties": {"edge_id": "1312030483-366835345-0", "u": 1312030483, "v": 366835345, "key": 0, "name": "X\u0259tai prospekti", "highway": "secondary", "length_m": 175.80051266615922, "speed_kph": 53.888888888888886, "travel_time_s": 11.744199196667134, "congestion": 1.0, "u_lon": 49.8532612, "u_lat": 40.3842683, "v_lon": 49.8518984, "v_lat": 40.3830774}}, {"type": "Feature", "geometry": {"type": "LineString", "coordinates": [[49.8504268, 40.3846869], [49.8502376, 40.3848331]]}, "properties": {"edge_id": "1312030487-1312030531-0", "u": 1312030487, "v": 1312030531, "key": 0, "name": NaN, "highway": "residential", "length_m": 22.827178927816643, "speed_kph": 55.88235294117647, "travel_time_s": 1.4705508951393458, "congestion": 0.16038827622571386, "u_lon": 49.8504268, "u_lat": 40.3846869, "v_lon": 49.8502376, "v_lat": 40.3848331}}, {"type": "Feature", "geometry": {"type": "LineString", "coordinates": [[49.8504268, 40.3846869], [49.8503646, 40.3845846], [49.8500156, 40.3839933], [49.8496955, 40.3835152]]}, "properties": {"edge_id": "1312030487-1304761803-0", "u": 1312030487, "v": 1304761803, "key": 0, "name": "T\u0259briz k\u00fc\u00e7\u0259si", "highway": "secondary", "length_m": 144.30167411624095, "speed_kph": 53.888888888888886, "travel_time_s": 9.63994688941486, "congestion": 1.0, "u_lon": 49.8504268, "u_lat": 40.3846869, "v_lon": 49.8496955, "v_lat": 40.3835152}}, {"type": "Feature", "geometry": {"type": "LineString", "coordinates": [[49.8502376, 40.3848331], [49.8488813, 40.3845337]]}, "properties": {"edge_id": "1312030531-1311738988-0", "u": 1312030531, "v": 1311738988, "key": 0, "name": "Sahib Zeynalov k\u00fc\u00e7.", "highway": "residential", "length_m": 119.603497069616, "speed_kph": 55.88235294117647, "travel_time_s": 7.70498317964263, "congestion": 0.840357837743454, "u_lon": 49.8502376, "u_lat": 40.3848331, "v_lon": 49.8488813, "v_lat": 40.3845337}}, {"type": "Feature", "geometry": {"type": "LineString", "coordinates": [[49.8434801, 40.3848634], [49.8436663, 40.3844295], [49.8437619, 40.3841845]]}, "properties": {"edge_id": "1473398890-1311738981-0", "u": 1473398890, "v": 1311738981, "key": 0, "name": "S\u00fcleyman R\u00fcst\u0259m k\u00fc\u00e7\u0259si", "highway": "residential", "length_m": 79.1803738231646, "speed_kph": 55.88235294117647, "travel_time_s": 5.100883029450183, "congestion": 0.556336974821255, "u_lon": 49.8434801, "u_lat": 40.3848634, "v_lon": 49.8437619, "v_lat": 40.3841845}}, {"type": "Feature", "geometry": {"type": "LineString", "coordinates": [[49.8422257, 40.383796], [49.8423475, 40.3838419], [49.842475, 40.383879], [49.8437619, 40.3841845]]}, "properties": {"edge_id": "1482491359-1311738981-0", "u": 1482491359, "v": 1311738981, "key": 0, "name": "Abbas Zamanov k\u00fc\u00e7\u0259si", "highway": "residential", "length_m": 137.240681005114, "speed_kph": 55.88235294117647, "travel_time_s": 8.841189134224186, "congestion": 0.964280182148582, "u_lon": 49.8422257, "u_lat": 40.383796, "v_lon": 49.8437619, "v_lat": 40.3841845}}, {"type": "Feature", "geometry": {"type": "LineString", "coordinates": [[49.8422257, 40.383796], [49.8420996, 40.3839733], [49.8415428, 40.3847583]]}, "properties": {"edge_id": "1482491359-1805816366-0", "u": 1482491359, "v": 1805816366, "key": 0, "name": "R\u0259\u015fid Behbudov k\u00fc\u00e7\u0259si", "highway": "primary", "length_m": 121.63565814339843, "speed_kph": 60.0, "travel_time_s": 7.298139488603906, "congestion": 0.7959846994082285, "u_lon": 49.8422257, "u_lat": 40.383796, "v_lon": 49.8415428, "v_lat": 40.3847583}}, {"type": "Feature", "geometry": {"type": "LineString", "coordinates": [[49.8493405, 40.3835533], [49.8492102, 40.3838336]]}, "properties": {"edge_id": "1490148194-1104367669-0", "u": 1490148194, "v": 1104367669, "key": 0, "name": "Ceyhun Hac\u0131b\u0259yli k\u00fc\u00e7\u0259si", "highway": "secondary", "length_m": 33.064254670830486, "speed_kph": 53.888888888888886, "travel_time_s": 2.2088285594534187, "congestion": 0.24090985650332816, "u_lon": 49.8493405, "u_lat": 40.3835533, "v_lon": 49.8492102, "v_lat": 40.3838336}}, {"type": "Feature", "geometry": {"type": "LineString", "coordinates": [[49.8493405, 40.3835533], [49.8493772, 40.383463], [49.8494983, 40.3832334]]}, "properties": {"edge_id": "1490148194-1104367830-0", "u": 1490148194, "v": 1104367830, "key": 0, "name": "Ceyhun Hac\u0131b\u0259yli k\u00fc\u00e7\u0259si", "highway": "secondary", "length_m": 38.02490979865969, "speed_kph": 53.888888888888886, "travel_time_s": 2.5402207783022144, "congestion": 0.27705374442414465, "u_lon": 49.8493405, "u_lat": 40.3835533, "v_lon": 49.8494983, "v_lat": 40.3832334}}, {"type": "Feature", "geometry": {"type": "LineString", "coordinates": [[49.84694, 40.3763431], [49.845902, 40.3759524], [49.845774, 40.3759053]]}, "properties": {"edge_id": "1490151974-276871124-0", "u": 1490151974, "v": 276871124, "key": 0, "name": "28 May k\u00fc\u00e7\u0259si", "highway": "secondary", "length_m": 110.11667743586162, "speed_kph": 53.888888888888886, "travel_time_s": 7.356248142107045, "congestion": 0.8023224241343643, "u_lon": 49.84694, "u_lat": 40.3763431, "v_lon": 49.845774, "v_lat": 40.3759053}}, {"type": "Feature", "geometry": {"type": "LineString", "coordinates": [[49.84694, 40.3763431], [49.8468986, 40.3764123], [49.8464505, 40.3771815], [49.8464292, 40.3772062], [49.8464084, 40.3772245], [49.8463764, 40.3772425]]}, "properties": {"edge_id": "1490151974-1490151975-0", "u": 1490151974, "v": 1490151975, "key": 0, "name": NaN, "highway": "residential", "length_m": 111.37915228255059, "speed_kph": 55.88235294117647, "travel_time_s": 7.175162231254838, "congestion": 0.7825719638229606, "u_lon": 49.84694, "u_lat": 40.3763431, "v_lon": 49.8463764, "v_lat": 40.3772425}}, {"type": "Feature", "geometry": {"type": "LineString", "coordinates": [[49.8463764, 40.3772425], [49.8480973, 40.377763], [49.8481699, 40.3777842]]}, "properties": {"edge_id": "1490151975-276374007-0", "u": 1490151975, "v": 276374007, "key": 0, "name": "Dilar\u0259 \u018fliyeva k\u00fc\u00e7\u0259si", "highway": "secondary", "length_m": 163.42871553973262, "speed_kph": 60.0, "travel_time_s": 9.805722932383958, "congestion": 1.0, "u_lon": 49.8463764, "u_lat": 40.3772425, "v_lon": 49.8481699, "v_lat": 40.3777842}}, {"type": "Feature", "geometry": {"type": "LineString", "coordinates": [[49.8463764, 40.3772425], [49.8455313, 40.37698], [49.8454615, 40.3769581], [49.8453992, 40.3769405], [49.8453354, 40.3769238]]}, "properties": {"edge_id": "1490151975-6562460304-0", "u": 1490151975, "v": 6562460304, "key": 0, "name": "Dilar\u0259 \u018fliyeva k\u00fc\u00e7\u0259si", "highway": "secondary", "length_m": 95.04632549155487, "speed_kph": 60.0, "travel_time_s": 5.702779529493292, "congestion": 0.621983898315907, "u_lon": 49.8463764, "u_lat": 40.3772425, "v_lon": 49.8453354, "v_lat": 40.3769238}}, {"type": "Feature", "geometry": {"type": "LineString", "coordinates": [[49.8463764, 40.3772425], [49.84634, 40.3772588], [49.8463149, 40.3772718], [49.8462924, 40.3772884], [49.8462693, 40.3773168], [49.8461841, 40.3774977], [49.8459641, 40.3779698]]}, "properties": {"edge_id": "1490151975-3880383895-0", "u": 1490151975, "v": 3880383895, "key": 0, "name": NaN, "highway": "residential", "length_m": 89.59149821852544, "speed_kph": 55.88235294117647, "travel_time_s": 5.771578622077639, "congestion": 0.6294875949930975, "u_lon": 49.8463764, "u_lat": 40.3772425, "v_lon": 49.8459641, "v_lat": 40.3779698}}, {"type": "Feature", "geometry": {"type": "LineString", "coordinates": [[49.8458525, 40.3793981], [49.8448474, 40.3791336], [49.8446048, 40.3790671], [49.844416, 40.3790192]]}, "properties": {"edge_id": "1490151990-482983954-0", "u": 1490151990, "v": 482983954, "key": 0, "name": "F\u00fczuli k\u00fc\u00e7\u0259si", "highway": "primary", "length_m": 128.7698948814877, "speed_kph": 60.0, "travel_time_s": 7.726193692889261, "congestion": 0.8426712004898467, "u_lon": 49.8458525, "u_lat": 40.3793981, "v_lon": 49.844416, "v_lat": 40.3790192}}, {"type": "Feature", "geometry": {"type": "LineString", "coordinates": [[49.8450696, 40.3811259], [49.8453044, 40.3806323]]}, "properties": {"edge_id": "1490151991-3880349590-0", "u": 1490151991, "v": 3880349590, "key": 0, "name": "S\u00fcleyman R\u00fcst\u0259m k\u00fc\u00e7\u0259si", "highway": "residential", "length_m": 58.37814424971893, "speed_kph": 55.88235294117647, "travel_time_s": 3.7607815032450507, "congestion": 0.41017639345958595, "u_lon": 49.8450696, "u_lat": 40.3811259, "v_lon": 49.8453044, "v_lat": 40.3806323}}, {"type": "Feature", "geometry": {"type": "LineString", "coordinates": [[49.8450696, 40.3811259], [49.8464238, 40.3814433], [49.8464598, 40.3814517]]}, "properties": {"edge_id": "1490151991-276374010-0", "u": 1490151991, "v": 276374010, "key": 0, "name": "\u015eamil \u018fzizb\u0259yov k\u00fc\u00e7\u0259si", "highway": "residential", "length_m": 123.20065926917825, "speed_kph": 55.88235294117647, "travel_time_s": 7.936716155024956, "congestion": 0.8656322111698189, "u_lon": 49.8450696, "u_lat": 40.3811259, "v_lon": 49.8464598, "v_lat": 40.3814517}}, {"type": "Feature", "geometry": {"type": "LineString", "coordinates": [[49.8446832, 40.3819988], [49.8450696, 40.3811259]]}, "properties": {"edge_id": "1490151992-1490151991-0", "u": 1490151992, "v": 1490151991, "key": 0, "name": "S\u00fcleyman R\u00fcst\u0259m k\u00fc\u00e7\u0259si", "highway": "residential", "length_m": 102.43172835147426, "speed_kph": 55.88235294117647, "travel_time_s": 6.598759763273921, "congestion": 0.7197055927525827, "u_lon": 49.8446832, "u_lat": 40.3819988, "v_lon": 49.8450696, "v_lat": 40.3811259}}, {"type": "Feature", "geometry": {"type": "LineString", "coordinates": [[49.8446832, 40.3819988], [49.844194, 40.3818826], [49.8438294, 40.381798], [49.8433086, 40.3816842]]}, "properties": {"edge_id": "1490151992-670215242-0", "u": 1490151992, "v": 670215242, "key": 0, "name": "Salat\u0131n \u018fsg\u0259rova k\u00fc\u00e7\u0259si", "highway": "secondary", "length_m": 121.5794136333163, "speed_kph": 53.888888888888886, "travel_time_s": 8.122006189112266, "congestion": 0.885841201737433, "u_lon": 49.8446832, "u_lat": 40.3819988, "v_lon": 49.8433086, "v_lat": 40.3816842}}, {"type": "Feature", "geometry": {"type": "LineString", "coordinates": [[49.8549349, 40.3788997], [49.8545677, 40.3797542]]}, "properties": {"edge_id": "2022808763-4896123331-0", "u": 2022808763, "v": 4896123331, "key": 0, "name": "Rixard Zorge k\u00fc\u00e7\u0259si", "highway": "residential", "length_m": 99.97761698631254, "speed_kph": 50.0, "travel_time_s": 7.198388423014503, "congestion": 0.7851051701689181, "u_lon": 49.8549349, "u_lat": 40.3788997, "v_lon": 49.8545677, "v_lat": 40.3797542}}, {"type": "Feature", "geometry": {"type": "LineString", "coordinates": [[49.8549349, 40.3788997], [49.8549318, 40.378855], [49.8549207, 40.3787407], [49.8548802, 40.3786893], [49.854824, 40.378648]]}, "properties": {"edge_id": "2022808763-3858806802-0", "u": 2022808763, "v": 3858806802, "key": 0, "name": NaN, "highway": "residential", "length_m": 31.00217328684058, "speed_kph": 55.88235294117647, "travel_time_s": 1.9971926370048878, "congestion": 0.21782740427324584, "u_lon": 49.8549349, "u_lat": 40.3788997, "v_lon": 49.854824, "v_lat": 40.378648}}, {"type": "Feature", "geometry": {"type": "LineString", "coordinates": [[49.8549349, 40.3788997], [49.8549701, 40.3788653], [49.8550451, 40.3788106], [49.8551135, 40.3787851], [49.855151, 40.3787642], [49.8551556, 40.3787488]]}, "properties": {"edge_id": "2022808763-276843332-0", "u": 2022808763, "v": 276843332, "key": 0, "name": "Rixard Zorge k\u00fc\u00e7\u0259si", "highway": "residential", "length_m": 25.78762230536514, "speed_kph": 50.0, "travel_time_s": 1.8567088059862902, "congestion": 0.20250528276821472, "u_lon": 49.8549349, "u_lat": 40.3788997, "v_lon": 49.8551556, "v_lat": 40.3787488}}, {"type": "Feature", "geometry": {"type": "LineString", "coordinates": [[49.8459774, 40.3782111], [49.846154, 40.3782579], [49.8462971, 40.3782953], [49.8463946, 40.3783211], [49.8475259, 40.3786253], [49.8475659, 40.378636], [49.8476054, 40.378646], [49.8477287, 40.3786776]]}, "properties": {"edge_id": "2214771819-277363537-0", "u": 2214771819, "v": 277363537, "key": 0, "name": "\u015e\u0259msi B\u0259d\u0259lb\u0259yli k\u00fc\u00e7\u0259si", "highway": "primary", "length_m": 157.15596420559453, "speed_kph": 60.0, "travel_time_s": 9.429357852335672, "congestion": 1.0, "u_lon": 49.8459774, "u_lat": 40.3782111, "v_lon": 49.8477287, "v_lat": 40.3786776}}, {"type": "Feature", "geometry": {"type": "LineString", "coordinates": [[49.8459774, 40.3782111], [49.8460006, 40.3783295], [49.8460037, 40.3783493], [49.8460138, 40.378483], [49.8460135, 40.3785074], [49.8460119, 40.3786374], [49.8459838, 40.3789177], [49.845953, 40.3790774], [49.8458785, 40.3793207], [49.8458525, 40.3793981]]}, "properties": {"edge_id": "2214771819-1490151990-0", "u": 2214771819, "v": 1490151990, "key": 0, "name": "S\u00fcleyman R\u00fcst\u0259m k\u00fc\u00e7\u0259si", "highway": "residential", "length_m": 133.4603275745723, "speed_kph": 55.88235294117647, "travel_time_s": 8.597654786909288, "congestion": 0.9377186708831801, "u_lon": 49.8459774, "u_lat": 40.3782111, "v_lon": 49.8458525, "v_lat": 40.3793981}}, {"type": "Feature", "geometry": {"type": "LineString", "coordinates": [[49.84847, 40.3810059], [49.8485468, 40.3810217], [49.8490356, 40.3811114], [49.84923, 40.3811509], [49.8496318, 40.3812286], [49.8499143, 40.3812763], [49.8499762, 40.3812976], [49.8500247, 40.3813209], [49.8500644, 40.3813428], [49.850374, 40.3815883], [49.8512282, 40.3823447], [49.8514387, 40.3825623], [49.8518984, 40.3830774]]}, "properties": {"edge_id": "2781838366-366835345-0", "u": 2781838366, "v": 366835345, "key": 0, "name": ["S\u00fcleyman R\u0259himov k\u00fc\u00e7\u0259si", "X\u0259tai prospekti"], "highway": "secondary", "length_m": 388.86568502541127, "speed_kph": 53.888888888888886, "travel_time_s": 25.97783132953263, "congestion": 1.0, "u_lon": 49.84847, "u_lat": 40.3810059, "v_lon": 49.8518984, "v_lat": 40.3830774}}, {"type": "Feature", "geometry": {"type": "LineString", "coordinates": [[49.84847, 40.3810059], [49.8484281, 40.381097], [49.8483979, 40.3811554], [49.8482685, 40.3814077], [49.8480533, 40.3818408]]}, "properties": {"edge_id": "2781838366-1104367652-0", "u": 2781838366, "v": 1104367652, "key": 0, "name": "Mir\u0259li Qa\u015fqay k\u00fc\u00e7.", "highway": "residential", "length_m": 99.32545027692014, "speed_kph": 60.0, "travel_time_s": 5.959527016615208, "congestion": 0.6499865244207761, "u_lon": 49.84847, "u_lat": 40.3810059, "v_lon": 49.8480533, "v_lat": 40.3818408}}, {"type": "Feature", "geometry": {"type": "LineString", "coordinates": [[49.8464624, 40.3747669], [49.8465819, 40.3748088], [49.8475, 40.3751166], [49.8490791, 40.375652], [49.8491997, 40.3756918], [49.849308, 40.3757251]]}, "properties": {"edge_id": "3077754635-276374005-0", "u": 3077754635, "v": 276374005, "key": 0, "name": "Nizami k\u00fc\u00e7\u0259si", "highway": "residential", "length_m": 263.5569835485806, "speed_kph": 60.0, "travel_time_s": 15.813419012914835, "congestion": 1.0, "u_lon": 49.8464624, "u_lat": 40.3747669, "v_lon": 49.849308, "v_lat": 40.3757251}}, {"type": "Feature", "geometry": {"type": "LineString", "coordinates": [[49.8464624, 40.3747669], [49.8462979, 40.3750418], [49.8458406, 40.3757907], [49.8458156, 40.3758316], [49.8457955, 40.3758647], [49.845774, 40.3759053]]}, "properties": {"edge_id": "3077754635-276871124-0", "u": 3077754635, "v": 276871124, "key": 0, "name": "R\u0259\u015fid Behbudov k\u00fc\u00e7\u0259si", "highway": "primary", "length_m": 139.3774209973478, "speed_kph": 60.0, "travel_time_s": 8.362645259840868, "congestion": 0.9120869344586121, "u_lon": 49.8464624, "u_lat": 40.3747669, "v_lon": 49.845774, "v_lat": 40.3759053}}, {"type": "Feature", "geometry": {"type": "LineString", "coordinates": [[49.8519121, 40.3790706], [49.8519411, 40.3790431], [49.8519626, 40.3790213], [49.851982, 40.3789966], [49.8520042, 40.3789619], [49.8524164, 40.378183], [49.852496, 40.3780277]]}, "properties": {"edge_id": "3828673172-276842655-0", "u": 3828673172, "v": 276842655, "key": 0, "name": "Pu\u015fkin k\u00fc\u00e7\u0259si", "highway": "secondary", "length_m": 126.36848812398833, "speed_kph": 50.0, "travel_time_s": 9.09853114492716, "congestion": 0.9923476510362863, "u_lon": 49.8519121, "u_lat": 40.3790706, "v_lon": 49.852496, "v_lat": 40.3780277}}, {"type": "Feature", "geometry": {"type": "LineString", "coordinates": [[49.8519121, 40.3790706], [49.8521832, 40.3791393], [49.8523063, 40.379171], [49.8528697, 40.3793171], [49.853447, 40.3794669], [49.8542001, 40.3796597], [49.8545677, 40.3797542]]}, "properties": {"edge_id": "3828673172-4896123331-0", "u": 3828673172, "v": 4896123331, "key": 0, "name": "Dilar\u0259 \u018fliyeva k\u00fc\u00e7\u0259si", "highway": "tertiary", "length_m": 237.43987550665733, "speed_kph": 50.0, "travel_time_s": 17.095671036479327, "congestion": 1.0, "u_lon": 49.8519121, "u_lat": 40.3790706, "v_lon": 49.8545677, "v_lat": 40.3797542}}, {"type": "Feature", "geometry": {"type": "LineString", "coordinates": [[49.8519121, 40.3790706], [49.8518192, 40.3790486], [49.8517217, 40.3790255], [49.8505051, 40.3787373], [49.8504256, 40.3787141], [49.8503619, 40.3786911], [49.8503081, 40.3786623], [49.8502707, 40.378637], [49.8502146, 40.3785924], [49.8500817, 40.3784715], [49.8500441, 40.3784418], [49.8499986, 40.3784084]]}, "properties": {"edge_id": "3828673172-276847902-0", "u": 3828673172, "v": 276847902, "key": 0, "name": "Dilar\u0259 \u018fliyeva k\u00fc\u00e7\u0259si", "highway": "secondary", "length_m": 182.14321194080284, "speed_kph": 50.0, "travel_time_s": 13.114311259737805, "congestion": 1.0, "u_lon": 49.8519121, "u_lat": 40.3790706, "v_lon": 49.8499986, "v_lat": 40.3784084}}, {"type": "Feature", "geometry": {"type": "LineString", "coordinates": [[49.854824, 40.378648], [49.8547324, 40.3786222], [49.8527919, 40.3781103], [49.8526695, 40.3780754], [49.852496, 40.3780277]]}, "properties": {"edge_id": "3858806802-276842655-0", "u": 3858806802, "v": 276842655, "key": 0, "name": "28 May k\u00fc\u00e7\u0259si", "highway": "secondary", "length_m": 208.91709736272426, "speed_kph": 60.0, "travel_time_s": 12.535025841763456, "congestion": 1.0, "u_lon": 49.854824, "u_lat": 40.378648, "v_lon": 49.852496, "v_lat": 40.3780277}}, {"type": "Feature", "geometry": {"type": "LineString", "coordinates": [[49.8423894, 40.3830875], [49.8425079, 40.3830735], [49.8426011, 40.3830795], [49.8427027, 40.3830956]]}, "properties": {"edge_id": "3871110672-276871125-0", "u": 3871110672, "v": 276871125, "key": 0, "name": "\u015e\u00f6vqiyar Abdullayev k\u00fc\u00e7.", "highway": "residential", "length_m": 26.869086643984282, "speed_kph": 55.88235294117647, "travel_time_s": 1.7309348448545665, "congestion": 0.1887875196587063, "u_lon": 49.8423894, "u_lat": 40.3830875, "v_lon": 49.8427027, "v_lat": 40.3830956}}, {"type": "Feature", "geometry": {"type": "LineString", "coordinates": [[49.844682, 40.3804678], [49.8453044, 40.3806323]]}, "properties": {"edge_id": "3880349583-3880349590-0", "u": 3880349583, "v": 3880349590, "key": 0, "name": NaN, "highway": "living_street", "length_m": 55.802703212507765, "speed_kph": 30.0, "travel_time_s": 6.696324385500931, "congestion": 0.7303466536171374, "u_lon": 49.844682, "u_lat": 40.3804678, "v_lon": 49.8453044, "v_lat": 40.3806323}}, {"type": "Feature", "geometry": {"type": "LineString", "coordinates": [[49.8453044, 40.3806323], [49.844682, 40.3804678]]}, "properties": {"edge_id": "3880349590-3880349583-0", "u": 3880349590, "v": 3880349583, "key": 0, "name": NaN, "highway": "living_street", "length_m": 55.802703212507765, "speed_kph": 30.0, "travel_time_s": 6.696324385500931, "congestion": 0.7303466536171374, "u_lon": 49.8453044, "u_lat": 40.3806323, "v_lon": 49.844682, "v_lat": 40.3804678}}, {"type": "Feature", "geometry": {"type": "LineString", "coordinates": [[49.8453044, 40.3806323], [49.8454824, 40.3802399]]}, "properties": {"edge_id": "3880349590-366835339-0", "u": 3880349590, "v": 366835339, "key": 0, "name": "S\u00fcleyman R\u00fcst\u0259m k\u00fc\u00e7\u0259si", "highway": "residential", "length_m": 46.1644809503066, "speed_kph": 55.88235294117647, "travel_time_s": 2.973964457009225, "congestion": 0.3243607782585808, "u_lon": 49.8453044, "u_lat": 40.3806323, "v_lon": 49.8454824, "v_lat": 40.3802399}}, {"type": "Feature", "geometry": {"type": "LineString", "coordinates": [[49.8428066, 40.3828739], [49.8423894, 40.3830875]]}, "properties": {"edge_id": "3880349663-3871110672-0", "u": 3880349663, "v": 3871110672, "key": 0, "name": NaN, "highway": "residential", "length_m": 42.577415281529824, "speed_kph": 55.88235294117647, "travel_time_s": 2.7428819107680265, "congestion": 0.2991573450554323, "u_lon": 49.8428066, "u_lat": 40.3828739, "v_lon": 49.8423894, "v_lat": 40.3830875}}, {"type": "Feature", "geometry": {"type": "LineString", "coordinates": [[49.8428066, 40.3828739], [49.8427498, 40.3830053], [49.8427027, 40.3830956]]}, "properties": {"edge_id": "3880349663-276871125-0", "u": 3880349663, "v": 276871125, "key": 0, "name": "R\u0259\u015fid Behbudov k\u00fc\u00e7\u0259si", "highway": "primary", "length_m": 26.187131318415627, "speed_kph": 60.0, "travel_time_s": 1.5712278791049377, "congestion": 0.17136879241676692, "u_lon": 49.8428066, "u_lat": 40.3828739, "v_lon": 49.8427027, "v_lat": 40.3830956}}, {"type": "Feature", "geometry": {"type": "LineString", "coordinates": [[49.8459641, 40.3779698], [49.8461841, 40.3774977], [49.8462693, 40.3773168], [49.8462924, 40.3772884], [49.8463149, 40.3772718], [49.84634, 40.3772588], [49.8463764, 40.3772425]]}, "properties": {"edge_id": "3880383895-1490151975-0", "u": 3880383895, "v": 1490151975, "key": 0, "name": NaN, "highway": "residential", "length_m": 89.59149821852546, "speed_kph": 55.88235294117647, "travel_time_s": 5.77157862207764, "congestion": 0.6294875949930976, "u_lon": 49.8459641, "u_lat": 40.3779698, "v_lon": 49.8463764, "v_lat": 40.3772425}}, {"type": "Feature", "geometry": {"type": "LineString", "coordinates": [[49.8459641, 40.3779698], [49.8459591, 40.378025], [49.8459598, 40.3780643], [49.8459628, 40.3781088], [49.8459715, 40.3781722], [49.8459774, 40.3782111]]}, "properties": {"edge_id": "3880383895-2214771819-0", "u": 3880383895, "v": 2214771819, "key": 0, "name": NaN, "highway": "residential", "length_m": 26.92008220757735, "speed_kph": 55.88235294117647, "travel_time_s": 1.7342200327407726, "congestion": 0.18914582457959533, "u_lon": 49.8459641, "u_lat": 40.3779698, "v_lon": 49.8459774, "v_lat": 40.3782111}}, {"type": "Feature", "geometry": {"type": "LineString", "coordinates": [[49.8457509, 40.3829705], [49.8457788, 40.3829775], [49.8473413, 40.3833691]]}, "properties": {"edge_id": "4767987221-1005353957-0", "u": 4767987221, "v": 1005353957, "key": 0, "name": "Mikay\u0131l R\u0259fili k\u00fc\u00e7\u0259si", "highway": "residential", "length_m": 141.81192305689098, "speed_kph": 55.88235294117647, "travel_time_s": 9.135673359033397, "congestion": 0.9963986333690953, "u_lon": 49.8457509, "u_lat": 40.3829705, "v_lon": 49.8473413, "v_lat": 40.3833691}}, {"type": "Feature", "geometry": {"type": "LineString", "coordinates": [[49.8457509, 40.3829705], [49.8456942, 40.3829573], [49.8444043, 40.3826555]]}, "properties": {"edge_id": "4767987221-1104367679-0", "u": 4767987221, "v": 1104367679, "key": 0, "name": "Mikay\u0131l R\u0259fili k\u00fc\u00e7\u0259si", "highway": "residential", "length_m": 119.31530898638455, "speed_kph": 55.88235294117647, "travel_time_s": 7.686417799964984, "congestion": 0.8383329712435486, "u_lon": 49.8457509, "u_lat": 40.3829705, "v_lon": 49.8444043, "v_lat": 40.3826555}}, {"type": "Feature", "geometry": {"type": "LineString", "coordinates": [[49.8457509, 40.3829705], [49.8460248, 40.3823612], [49.8460407, 40.3823259]]}, "properties": {"edge_id": "4767987221-276374011-0", "u": 4767987221, "v": 276374011, "key": 0, "name": "Azadl\u0131q prospekti", "highway": "primary", "length_m": 75.76295033110047, "speed_kph": 60.0, "travel_time_s": 4.545777019866029, "congestion": 0.495793340259528, "u_lon": 49.8457509, "u_lat": 40.3829705, "v_lon": 49.8460407, "v_lat": 40.3823259}}, {"type": "Feature", "geometry": {"type": "LineString", "coordinates": [[49.8545677, 40.3797542], [49.8549349, 40.3788997]]}, "properties": {"edge_id": "4896123331-2022808763-0", "u": 4896123331, "v": 2022808763, "key": 0, "name": "Rixard Zorge k\u00fc\u00e7\u0259si", "highway": "residential", "length_m": 99.97761698631254, "speed_kph": 50.0, "travel_time_s": 7.198388423014503, "congestion": 0.7851051701689181, "u_lon": 49.8545677, "u_lat": 40.3797542, "v_lon": 49.8549349, "v_lat": 40.3788997}}, {"type": "Feature", "geometry": {"type": "LineString", "coordinates": [[49.8545677, 40.3797542], [49.8542001, 40.3796597], [49.853447, 40.3794669], [49.8528697, 40.3793171], [49.8523063, 40.379171], [49.8521832, 40.3791393], [49.8519121, 40.3790706]]}, "properties": {"edge_id": "4896123331-3828673172-0", "u": 4896123331, "v": 3828673172, "key": 0, "name": "Dilar\u0259 \u018fliyeva k\u00fc\u00e7\u0259si", "highway": "tertiary", "length_m": 237.4398755066573, "speed_kph": 50.0, "travel_time_s": 17.095671036479327, "congestion": 1.0, "u_lon": 49.8545677, "u_lat": 40.3797542, "v_lon": 49.8519121, "v_lat": 40.3790706}}, {"type": "Feature", "geometry": {"type": "LineString", "coordinates": [[49.8453354, 40.3769238], [49.8453992, 40.3769405], [49.8454615, 40.3769581], [49.8455313, 40.37698], [49.8463764, 40.3772425]]}, "properties": {"edge_id": "6562460304-1490151975-0", "u": 6562460304, "v": 1490151975, "key": 0, "name": "Dilar\u0259 \u018fliyeva k\u00fc\u00e7\u0259si", "highway": "secondary", "length_m": 95.04632549155487, "speed_kph": 60.0, "travel_time_s": 5.702779529493292, "congestion": 0.621983898315907, "u_lon": 49.8453354, "u_lat": 40.3769238, "v_lon": 49.8463764, "v_lat": 40.3772425}}, {"type": "Feature", "geometry": {"type": "LineString", "coordinates": [[49.8453354, 40.3769238], [49.8452911, 40.3770282], [49.8452759, 40.3770641], [49.8449573, 40.3777939], [49.8449349, 40.3778461], [49.8448901, 40.3779476]]}, "properties": {"edge_id": "6562460304-277363535-0", "u": 6562460304, "v": 277363535, "key": 0, "name": "R\u0259\u015fid Behbudov k\u00fc\u00e7\u0259si", "highway": "primary", "length_m": 119.92863973227148, "speed_kph": 60.0, "travel_time_s": 7.195718383936289, "congestion": 0.7848139575583071, "u_lon": 49.8453354, "u_lat": 40.3769238, "v_lon": 49.8448901, "v_lat": 40.3779476}}, {"type": "Feature", "geometry": {"type": "LineString", "coordinates": [[49.8453354, 40.3769238], [49.8452815, 40.3769112], [49.845221, 40.3768968], [49.845157, 40.3768821], [49.8441897, 40.3766789]]}, "properties": {"edge_id": "6562460304-339114149-0", "u": 6562460304, "v": 339114149, "key": 0, "name": "Dilar\u0259 \u018fliyeva k\u00fc\u00e7\u0259si", "highway": "residential", "length_m": 100.8042530099448, "speed_kph": 60.0, "travel_time_s": 6.048255180596688, "congestion": 0.6596638210860598, "u_lon": 49.8453354, "u_lat": 40.3769238, "v_lon": 49.8441897, "v_lat": 40.3766789}}, {"type": "Feature", "geometry": {"type": "LineString", "coordinates": [[49.8424992, 40.3774721], [49.842491, 40.3774411], [49.842489, 40.3774151], [49.8424937, 40.3773798], [49.8425887, 40.3770678], [49.8426017, 40.3770248]]}, "properties": {"edge_id": "9815498885-276372001-0", "u": 9815498885, "v": 276372001, "key": 0, "name": "B\u00fclb\u00fcl prospekti", "highway": "primary", "length_m": 50.87820011071611, "speed_kph": 60.0, "travel_time_s": 3.0526920066429666, "congestion": 0.33294733994710607, "u_lon": 49.8424992, "u_lat": 40.3774721, "v_lon": 49.8426017, "v_lat": 40.3770248}}, {"type": "Feature", "geometry": {"type": "LineString", "coordinates": [[49.8424992, 40.3774721], [49.8426495, 40.3775003], [49.8438612, 40.3777399]]}, "properties": {"edge_id": "9815498885-277363690-0", "u": 9815498885, "v": 277363690, "key": 0, "name": "\u015e\u0259msi B\u0259d\u0259lb\u0259yli k\u00fc\u00e7\u0259si", "highway": "primary", "length_m": 119.15347651118104, "speed_kph": 60.0, "travel_time_s": 7.149208590670862, "congestion": 0.7797412833692582, "u_lon": 49.8424992, "u_lat": 40.3774721, "v_lon": 49.8438612, "v_lat": 40.3777399}}, {"type": "Feature", "geometry": {"type": "LineString", "coordinates": [[49.8434917, 40.3824429], [49.8444043, 40.3826555]]}, "properties": {"edge_id": "10710217913-1104367679-0", "u": 10710217913, "v": 1104367679, "key": 0, "name": "Mikay\u0131l R\u0259fili k\u00fc\u00e7\u0259si", "highway": "residential", "length_m": 80.83248968758967, "speed_kph": 55.88235294117647, "travel_time_s": 5.207314072505777, "congestion": 0.5679450678080494, "u_lon": 49.8434917, "u_lat": 40.3824429, "v_lon": 49.8444043, "v_lat": 40.3826555}}, {"type": "Feature", "geometry": {"type": "LineString", "coordinates": [[49.8434917, 40.3824429], [49.843616, 40.3821554], [49.8435815, 40.3821227]]}, "properties": {"edge_id": "10710217913-10710217915-0", "u": 10710217913, "v": 10710217915, "key": 0, "name": NaN, "highway": "living_street", "length_m": 38.32246021764496, "speed_kph": 30.0, "travel_time_s": 4.598695226117395, "congestion": 0.5015649595279716, "u_lon": 49.8434917, "u_lat": 40.3824429, "v_lon": 49.8435815, "v_lat": 40.3821227}}, {"type": "Feature", "geometry": {"type": "LineString", "coordinates": [[49.8435815, 40.3821227], [49.843616, 40.3821554], [49.8434917, 40.3824429]]}, "properties": {"edge_id": "10710217915-10710217913-0", "u": 10710217915, "v": 10710217913, "key": 0, "name": NaN, "highway": "living_street", "length_m": 38.32246021764496, "speed_kph": 30.0, "travel_time_s": 4.598695226117395, "congestion": 0.5015649595279716, "u_lon": 49.8435815, "u_lat": 40.3821227, "v_lon": 49.8434917, "v_lat": 40.3824429}}, {"type": "Feature", "geometry": {"type": "LineString", "coordinates": [[49.8457573, 40.3781576], [49.8459774, 40.3782111]]}, "properties": {"edge_id": "11442905405-2214771819-0", "u": 11442905405, "v": 2214771819, "key": 0, "name": "\u015e\u0259msi B\u0259d\u0259lb\u0259yli k\u00fc\u00e7\u0259si", "highway": "primary", "length_m": 19.57005195158079, "speed_kph": 60.0, "travel_time_s": 1.1742031170948475, "congestion": 0.12806657322245016, "u_lon": 49.8457573, "u_lat": 40.3781576, "v_lon": 49.8459774, "v_lat": 40.3782111}}, {"type": "Feature", "geometry": {"type": "LineString", "coordinates": [[49.8457573, 40.3781576], [49.8457972, 40.3781285], [49.845859, 40.3780826], [49.8459021, 40.3780444], [49.8459269, 40.3780158], [49.8459641, 40.3779698]]}, "properties": {"edge_id": "11442905405-3880383895-0", "u": 11442905405, "v": 3880383895, "key": 0, "name": NaN, "highway": "residential", "length_m": 27.410297547477068, "speed_kph": 55.88235294117647, "travel_time_s": 1.7658002209532595, "congestion": 0.1925901745623305, "u_lon": 49.8457573, "u_lat": 40.3781576, "v_lon": 49.8459641, "v_lat": 40.3779698}}, {"type": "Feature", "geometry": {"type": "LineString", "coordinates": [[49.8427733, 40.3764118], [49.8428885, 40.376007]]}, "properties": {"edge_id": "11882565048-277361992-0", "u": 11882565048, "v": 277361992, "key": 0, "name": "B\u00fclb\u00fcl prospekti", "highway": "primary", "length_m": 46.05744045986993, "speed_kph": 60.0, "travel_time_s": 2.763446427592196, "congestion": 0.30140025104103624, "u_lon": 49.8427733, "u_lat": 40.3764118, "v_lon": 49.8428885, "v_lat": 40.376007}}, {"type": "Feature", "geometry": {"type": "LineString", "coordinates": [[49.8427733, 40.3764118], [49.8428521, 40.3764256], [49.8429152, 40.3764377], [49.8441897, 40.3766789]]}, "properties": {"edge_id": "11882565048-339114149-0", "u": 11882565048, "v": 339114149, "key": 0, "name": "Dilar\u0259 \u018fliyeva k\u00fc\u00e7\u0259si", "highway": "residential", "length_m": 123.60393726112697, "speed_kph": 30.0, "travel_time_s": 14.832472471335237, "congestion": 1.0, "u_lon": 49.8427733, "u_lat": 40.3764118, "v_lon": 49.8441897, "v_lat": 40.3766789}}]}